<?xml version="1.0" encoding="UTF-8"?>
<!-- track-length = 32264 filtered ascend = 735 plain-ascend = 2 cost=32264 energy=0.5kwh time=43m 0.7600000000002183s -->
<gpx 
 xmlns="http://www.topografix.com/GPX/1/1" 
 xmlns:xsi="http://www.w3.org/2001/XMLSchema-instance" 
 xsi:schemaLocation="http://www.topografix.com/GPX/1/1 http://www.topografix.com/GPX/1/1/gpx.xsd" 
 version="1.1" 
 creator="BRouter-Web 0.18.1">
 <trk>
  <name>2026-07-02 - Interlaken (32.3km)</name>
  <trkseg>
   <trkpt lat="46.690679" lon="7.870007"><ele>567</ele></trkpt>
   <trkpt lat="46.69084" lon="7.871434"><ele>567</ele></trkpt>
   <trkpt lat="46.690849" lon="7.87164"><ele>567</ele></trkpt>
   <trkpt lat="46.690847" lon="7.871729"><ele>567</ele></trkpt>
   <trkpt lat="46.690834" lon="7.871864"><ele>567</ele></trkpt>
   <trkpt lat="46.690802" lon="7.872048"><ele>566.5</ele></trkpt>
   <trkpt lat="46.69077" lon="7.872182"><ele>566.25</ele></trkpt>
   <trkpt lat="46.690712" lon="7.872364"><ele>566.25</ele></trkpt>
   <trkpt lat="46.690667" lon="7.872475"><ele>566.5</ele></trkpt>
   <trkpt lat="46.690588" lon="7.872634"><ele>566.75</ele></trkpt>
   <trkpt lat="46.690524" lon="7.872744"><ele>567</ele></trkpt>
   <trkpt lat="46.690373" lon="7.872962"><ele>567</ele></trkpt>
   <trkpt lat="46.690287" lon="7.873061"><ele>567</ele></trkpt>
   <trkpt lat="46.69013" lon="7.873216"><ele>566.75</ele></trkpt>
   <trkpt lat="46.690038" lon="7.873291"><ele>566.75</ele></trkpt>
   <trkpt lat="46.689917" lon="7.873371"><ele>567</ele></trkpt>
   <trkpt lat="46.689739" lon="7.873459"><ele>567.25</ele></trkpt>
   <trkpt lat="46.689529" lon="7.873522"><ele>567</ele></trkpt>
   <trkpt lat="46.689442" lon="7.873539"><ele>566.5</ele></trkpt>
   <trkpt lat="46.68828" lon="7.873732"><ele>566.25</ele></trkpt>
   <trkpt lat="46.6881" lon="7.873762"><ele>565</ele></trkpt>
   <trkpt lat="46.687932" lon="7.873789"><ele>565.75</ele></trkpt>
   <trkpt lat="46.687408" lon="7.87387"><ele>567.75</ele></trkpt>
   <trkpt lat="46.685924" lon="7.874052"><ele>568</ele></trkpt>
   <trkpt lat="46.685147" lon="7.874172"><ele>568.25</ele></trkpt>
   <trkpt lat="46.683291" lon="7.874478"><ele>570</ele></trkpt>
   <trkpt lat="46.682841" lon="7.874557"><ele>570.25</ele></trkpt>
   <trkpt lat="46.68252" lon="7.874645"><ele>570</ele></trkpt>
   <trkpt lat="46.682344" lon="7.874714"><ele>570</ele></trkpt>
   <trkpt lat="46.682164" lon="7.874798"><ele>570.25</ele></trkpt>
   <trkpt lat="46.681981" lon="7.8749"><ele>570.75</ele></trkpt>
   <trkpt lat="46.681806" lon="7.875013"><ele>571</ele></trkpt>
   <trkpt lat="46.680696" lon="7.875859"><ele>573.75</ele></trkpt>
   <trkpt lat="46.680358" lon="7.876103"><ele>572.25</ele></trkpt>
   <trkpt lat="46.680233" lon="7.876176"><ele>571.75</ele></trkpt>
   <trkpt lat="46.680047" lon="7.876268"><ele>571.25</ele></trkpt>
   <trkpt lat="46.679793" lon="7.876362"><ele>572</ele></trkpt>
   <trkpt lat="46.679567" lon="7.876412"><ele>572</ele></trkpt>
   <trkpt lat="46.67948" lon="7.876422"><ele>572</ele></trkpt>
   <trkpt lat="46.679261" lon="7.876435"><ele>572.5</ele></trkpt>
   <trkpt lat="46.679175" lon="7.876431"><ele>572.75</ele></trkpt>
   <trkpt lat="46.678887" lon="7.876393"><ele>573</ele></trkpt>
   <trkpt lat="46.677024" lon="7.87602"><ele>574.5</ele></trkpt>
   <trkpt lat="46.67675" lon="7.875944"><ele>574</ele></trkpt>
   <trkpt lat="46.67663" lon="7.875898"><ele>574</ele></trkpt>
   <trkpt lat="46.6764" lon="7.875785"><ele>574</ele></trkpt>
   <trkpt lat="46.676193" lon="7.875652"><ele>574.25</ele></trkpt>
   <trkpt lat="46.675975" lon="7.875481"><ele>574</ele></trkpt>
   <trkpt lat="46.675845" lon="7.875365"><ele>573.75</ele></trkpt>
   <trkpt lat="46.675672" lon="7.875189"><ele>574.5</ele></trkpt>
   <trkpt lat="46.675571" lon="7.875076"><ele>574.75</ele></trkpt>
   <trkpt lat="46.675409" lon="7.87488"><ele>574.75</ele></trkpt>
   <trkpt lat="46.675234" lon="7.874645"><ele>575</ele></trkpt>
   <trkpt lat="46.674928" lon="7.874169"><ele>575</ele></trkpt>
   <trkpt lat="46.673965" lon="7.872628"><ele>575.25</ele></trkpt>
   <trkpt lat="46.673273" lon="7.871522"><ele>576.5</ele></trkpt>
   <trkpt lat="46.672793" lon="7.870753"><ele>576.75</ele></trkpt>
   <trkpt lat="46.672504" lon="7.870306"><ele>576.75</ele></trkpt>
   <trkpt lat="46.672304" lon="7.870083"><ele>577</ele></trkpt>
   <trkpt lat="46.672166" lon="7.869957"><ele>577.25</ele></trkpt>
   <trkpt lat="46.672063" lon="7.869878"><ele>577.75</ele></trkpt>
   <trkpt lat="46.671957" lon="7.869809"><ele>577.75</ele></trkpt>
   <trkpt lat="46.671763" lon="7.869709"><ele>578</ele></trkpt>
   <trkpt lat="46.671663" lon="7.869671"><ele>578</ele></trkpt>
   <trkpt lat="46.671514" lon="7.869629"><ele>578</ele></trkpt>
   <trkpt lat="46.671347" lon="7.869602"><ele>578</ele></trkpt>
   <trkpt lat="46.671143" lon="7.869597"><ele>578.75</ele></trkpt>
   <trkpt lat="46.67101" lon="7.86961"><ele>579</ele></trkpt>
   <trkpt lat="46.670859" lon="7.86964"><ele>579</ele></trkpt>
   <trkpt lat="46.670771" lon="7.869666"><ele>579</ele></trkpt>
   <trkpt lat="46.670581" lon="7.869743"><ele>579.75</ele></trkpt>
   <trkpt lat="46.670398" lon="7.869832"><ele>580</ele></trkpt>
   <trkpt lat="46.669961" lon="7.870071"><ele>580</ele></trkpt>
   <trkpt lat="46.669739" lon="7.870184"><ele>580</ele></trkpt>
   <trkpt lat="46.669384" lon="7.870343"><ele>580.75</ele></trkpt>
   <trkpt lat="46.669101" lon="7.8705"><ele>581</ele></trkpt>
   <trkpt lat="46.668835" lon="7.870636"><ele>581</ele></trkpt>
   <trkpt lat="46.668695" lon="7.870694"><ele>581</ele></trkpt>
   <trkpt lat="46.668513" lon="7.87075"><ele>581.25</ele></trkpt>
   <trkpt lat="46.668366" lon="7.870777"><ele>581.75</ele></trkpt>
   <trkpt lat="46.668243" lon="7.870788"><ele>582</ele></trkpt>
   <trkpt lat="46.668111" lon="7.870784"><ele>582</ele></trkpt>
   <trkpt lat="46.667974" lon="7.870766"><ele>582</ele></trkpt>
   <trkpt lat="46.667784" lon="7.870716"><ele>582</ele></trkpt>
   <trkpt lat="46.667648" lon="7.870659"><ele>582.25</ele></trkpt>
   <trkpt lat="46.667631" lon="7.870651"><ele>582.25</ele></trkpt>
   <trkpt lat="46.66744" lon="7.870548"><ele>582.75</ele></trkpt>
   <trkpt lat="46.667024" lon="7.870281"><ele>583</ele></trkpt>
   <trkpt lat="46.666894" lon="7.870192"><ele>583</ele></trkpt>
   <trkpt lat="46.665717" lon="7.869415"><ele>584</ele></trkpt>
   <trkpt lat="46.665511" lon="7.869279"><ele>584</ele></trkpt>
   <trkpt lat="46.665402" lon="7.869217"><ele>584</ele></trkpt>
   <trkpt lat="46.665303" lon="7.869173"><ele>584</ele></trkpt>
   <trkpt lat="46.665171" lon="7.86914"><ele>584</ele></trkpt>
   <trkpt lat="46.665096" lon="7.86913"><ele>584</ele></trkpt>
   <trkpt lat="46.664946" lon="7.869132"><ele>584.25</ele></trkpt>
   <trkpt lat="46.664848" lon="7.869149"><ele>584.5</ele></trkpt>
   <trkpt lat="46.664722" lon="7.869196"><ele>584.75</ele></trkpt>
   <trkpt lat="46.664682" lon="7.869216"><ele>584.75</ele></trkpt>
   <trkpt lat="46.664507" lon="7.869341"><ele>584.75</ele></trkpt>
   <trkpt lat="46.663773" lon="7.870029"><ele>585.25</ele></trkpt>
   <trkpt lat="46.663619" lon="7.870165"><ele>585.75</ele></trkpt>
   <trkpt lat="46.663513" lon="7.870237"><ele>586</ele></trkpt>
   <trkpt lat="46.663392" lon="7.8703"><ele>586</ele></trkpt>
   <trkpt lat="46.66326" lon="7.87034"><ele>586.25</ele></trkpt>
   <trkpt lat="46.663131" lon="7.870357"><ele>586.5</ele></trkpt>
   <trkpt lat="46.662974" lon="7.870346"><ele>586.5</ele></trkpt>
   <trkpt lat="46.662807" lon="7.870294"><ele>586.75</ele></trkpt>
   <trkpt lat="46.662119" lon="7.86996"><ele>588.25</ele></trkpt>
   <trkpt lat="46.661951" lon="7.869856"><ele>587.75</ele></trkpt>
   <trkpt lat="46.661868" lon="7.869793"><ele>587.5</ele></trkpt>
   <trkpt lat="46.661545" lon="7.869496"><ele>588.5</ele></trkpt>
   <trkpt lat="46.661396" lon="7.869373"><ele>589</ele></trkpt>
   <trkpt lat="46.661199" lon="7.869258"><ele>589</ele></trkpt>
   <trkpt lat="46.661085" lon="7.869215"><ele>589.25</ele></trkpt>
   <trkpt lat="46.660952" lon="7.869181"><ele>590</ele></trkpt>
   <trkpt lat="46.660728" lon="7.86915"><ele>590</ele></trkpt>
   <trkpt lat="46.660438" lon="7.869114"><ele>590.75</ele></trkpt>
   <trkpt lat="46.659482" lon="7.868993"><ele>592</ele></trkpt>
   <trkpt lat="46.658899" lon="7.86893"><ele>593.5</ele></trkpt>
   <trkpt lat="46.658702" lon="7.868936"><ele>593</ele></trkpt>
   <trkpt lat="46.658054" lon="7.869063"><ele>593.5</ele></trkpt>
   <trkpt lat="46.657866" lon="7.869078"><ele>594</ele></trkpt>
   <trkpt lat="46.657689" lon="7.869068"><ele>594.5</ele></trkpt>
   <trkpt lat="46.657505" lon="7.869028"><ele>594.75</ele></trkpt>
   <trkpt lat="46.657318" lon="7.868962"><ele>595.5</ele></trkpt>
   <trkpt lat="46.657101" lon="7.868843"><ele>596</ele></trkpt>
   <trkpt lat="46.65685" lon="7.868683"><ele>595.75</ele></trkpt>
   <trkpt lat="46.656717" lon="7.868615"><ele>595.5</ele></trkpt>
   <trkpt lat="46.656597" lon="7.868555"><ele>596</ele></trkpt>
   <trkpt lat="46.65648" lon="7.868502"><ele>596.5</ele></trkpt>
   <trkpt lat="46.656353" lon="7.868466"><ele>597</ele></trkpt>
   <trkpt lat="46.656101" lon="7.868432"><ele>598.75</ele></trkpt>
   <trkpt lat="46.65589" lon="7.868439"><ele>600.5</ele></trkpt>
   <trkpt lat="46.6557" lon="7.86848"><ele>601.75</ele></trkpt>
   <trkpt lat="46.655497" lon="7.868551"><ele>601.75</ele></trkpt>
   <trkpt lat="46.655337" lon="7.868651"><ele>602</ele></trkpt>
   <trkpt lat="46.655189" lon="7.868757"><ele>603.5</ele></trkpt>
   <trkpt lat="46.655023" lon="7.868907"><ele>604</ele></trkpt>
   <trkpt lat="46.654515" lon="7.869462"><ele>606</ele></trkpt>
   <trkpt lat="46.654232" lon="7.869689"><ele>606.25</ele></trkpt>
   <trkpt lat="46.654005" lon="7.869849"><ele>607.75</ele></trkpt>
   <trkpt lat="46.653827" lon="7.869939"><ele>607.5</ele></trkpt>
   <trkpt lat="46.653392" lon="7.87013"><ele>608.5</ele></trkpt>
   <trkpt lat="46.653126" lon="7.870326"><ele>608</ele></trkpt>
   <trkpt lat="46.652904" lon="7.870503"><ele>608.25</ele></trkpt>
   <trkpt lat="46.652758" lon="7.870656"><ele>607.75</ele></trkpt>
   <trkpt lat="46.652585" lon="7.870848"><ele>610.75</ele></trkpt>
   <trkpt lat="46.652441" lon="7.871046"><ele>612.25</ele></trkpt>
   <trkpt lat="46.652284" lon="7.871302"><ele>612.75</ele></trkpt>
   <trkpt lat="46.652141" lon="7.871569"><ele>612.75</ele></trkpt>
   <trkpt lat="46.651965" lon="7.871927"><ele>614</ele></trkpt>
   <trkpt lat="46.651871" lon="7.872098"><ele>613.5</ele></trkpt>
   <trkpt lat="46.651765" lon="7.872269"><ele>614</ele></trkpt>
   <trkpt lat="46.651657" lon="7.872419"><ele>613.75</ele></trkpt>
   <trkpt lat="46.65153" lon="7.872573"><ele>613</ele></trkpt>
   <trkpt lat="46.651372" lon="7.872715"><ele>614</ele></trkpt>
   <trkpt lat="46.651236" lon="7.872821"><ele>615.25</ele></trkpt>
   <trkpt lat="46.651111" lon="7.872898"><ele>615.5</ele></trkpt>
   <trkpt lat="46.650994" lon="7.872958"><ele>615.5</ele></trkpt>
   <trkpt lat="46.650886" lon="7.872999"><ele>616</ele></trkpt>
   <trkpt lat="46.650502" lon="7.873076"><ele>619</ele></trkpt>
   <trkpt lat="46.650173" lon="7.8731"><ele>619.5</ele></trkpt>
   <trkpt lat="46.649929" lon="7.873136"><ele>620.5</ele></trkpt>
   <trkpt lat="46.649696" lon="7.873213"><ele>621.5</ele></trkpt>
   <trkpt lat="46.649524" lon="7.873294"><ele>615.25</ele></trkpt>
   <trkpt lat="46.648926" lon="7.873716"><ele>612.75</ele></trkpt>
   <trkpt lat="46.648706" lon="7.873856"><ele>618.75</ele></trkpt>
   <trkpt lat="46.648437" lon="7.873974"><ele>622.5</ele></trkpt>
   <trkpt lat="46.647922" lon="7.874148"><ele>625.25</ele></trkpt>
   <trkpt lat="46.647805" lon="7.874201"><ele>626.25</ele></trkpt>
   <trkpt lat="46.647621" lon="7.874306"><ele>626.5</ele></trkpt>
   <trkpt lat="46.647426" lon="7.87445"><ele>627</ele></trkpt>
   <trkpt lat="46.647229" lon="7.874635"><ele>627.5</ele></trkpt>
   <trkpt lat="46.646735" lon="7.875146"><ele>628.5</ele></trkpt>
   <trkpt lat="46.646402" lon="7.875507"><ele>631</ele></trkpt>
   <trkpt lat="46.646116" lon="7.875797"><ele>632.25</ele></trkpt>
   <trkpt lat="46.645871" lon="7.876058"><ele>631.25</ele></trkpt>
   <trkpt lat="46.645744" lon="7.876202"><ele>632.25</ele></trkpt>
   <trkpt lat="46.64557" lon="7.876423"><ele>634.25</ele></trkpt>
   <trkpt lat="46.645472" lon="7.876571"><ele>635.25</ele></trkpt>
   <trkpt lat="46.645394" lon="7.876703"><ele>636</ele></trkpt>
   <trkpt lat="46.64531" lon="7.87686"><ele>636</ele></trkpt>
   <trkpt lat="46.644961" lon="7.877605"><ele>635.25</ele></trkpt>
   <trkpt lat="46.644784" lon="7.877912"><ele>635</ele></trkpt>
   <trkpt lat="46.644675" lon="7.878073"><ele>635</ele></trkpt>
   <trkpt lat="46.644448" lon="7.878377"><ele>636.25</ele></trkpt>
   <trkpt lat="46.644279" lon="7.878616"><ele>638</ele></trkpt>
   <trkpt lat="46.644082" lon="7.878923"><ele>635.75</ele></trkpt>
   <trkpt lat="46.64388" lon="7.879287"><ele>636</ele></trkpt>
   <trkpt lat="46.643692" lon="7.87968"><ele>636.75</ele></trkpt>
   <trkpt lat="46.643499" lon="7.880166"><ele>636.25</ele></trkpt>
   <trkpt lat="46.643397" lon="7.880467"><ele>636.75</ele></trkpt>
   <trkpt lat="46.643301" lon="7.880783"><ele>636</ele></trkpt>
   <trkpt lat="46.642702" lon="7.882876"><ele>635.5</ele></trkpt>
   <trkpt lat="46.642389" lon="7.883948"><ele>636</ele></trkpt>
   <trkpt lat="46.642313" lon="7.884153"><ele>636.75</ele></trkpt>
   <trkpt lat="46.642192" lon="7.884441"><ele>635.75</ele></trkpt>
   <trkpt lat="46.642029" lon="7.884768"><ele>636</ele></trkpt>
   <trkpt lat="46.641929" lon="7.884932"><ele>635.75</ele></trkpt>
   <trkpt lat="46.641712" lon="7.885247"><ele>636.5</ele></trkpt>
   <trkpt lat="46.641502" lon="7.885491"><ele>636.5</ele></trkpt>
   <trkpt lat="46.641378" lon="7.885621"><ele>636.75</ele></trkpt>
   <trkpt lat="46.641251" lon="7.885736"><ele>636.5</ele></trkpt>
   <trkpt lat="46.641014" lon="7.885923"><ele>636.75</ele></trkpt>
   <trkpt lat="46.640105" lon="7.88651"><ele>637.5</ele></trkpt>
   <trkpt lat="46.639741" lon="7.886779"><ele>638</ele></trkpt>
   <trkpt lat="46.639582" lon="7.886926"><ele>638.25</ele></trkpt>
   <trkpt lat="46.639422" lon="7.887103"><ele>638.75</ele></trkpt>
   <trkpt lat="46.639239" lon="7.887349"><ele>639</ele></trkpt>
   <trkpt lat="46.639148" lon="7.88749"><ele>639.75</ele></trkpt>
   <trkpt lat="46.638967" lon="7.887832"><ele>639.75</ele></trkpt>
   <trkpt lat="46.638884" lon="7.888027"><ele>640.75</ele></trkpt>
   <trkpt lat="46.638805" lon="7.888234"><ele>640.25</ele></trkpt>
   <trkpt lat="46.638722" lon="7.888516"><ele>640.25</ele></trkpt>
   <trkpt lat="46.638676" lon="7.888711"><ele>641</ele></trkpt>
   <trkpt lat="46.63861" lon="7.889071"><ele>642.5</ele></trkpt>
   <trkpt lat="46.638578" lon="7.889316"><ele>642.5</ele></trkpt>
   <trkpt lat="46.638531" lon="7.889909"><ele>642.25</ele></trkpt>
   <trkpt lat="46.638521" lon="7.89041"><ele>643.75</ele></trkpt>
   <trkpt lat="46.638532" lon="7.890946"><ele>645.5</ele></trkpt>
   <trkpt lat="46.638537" lon="7.891139"><ele>645</ele></trkpt>
   <trkpt lat="46.638544" lon="7.891465"><ele>645.5</ele></trkpt>
   <trkpt lat="46.638541" lon="7.891683"><ele>644.5</ele></trkpt>
   <trkpt lat="46.638522" lon="7.89193"><ele>644.25</ele></trkpt>
   <trkpt lat="46.638498" lon="7.892127"><ele>643.75</ele></trkpt>
   <trkpt lat="46.638447" lon="7.892386"><ele>643.25</ele></trkpt>
   <trkpt lat="46.638394" lon="7.892592"><ele>643.75</ele></trkpt>
   <trkpt lat="46.638314" lon="7.892843"><ele>644.75</ele></trkpt>
   <trkpt lat="46.638236" lon="7.893033"><ele>644.5</ele></trkpt>
   <trkpt lat="46.63815" lon="7.893219"><ele>644.5</ele></trkpt>
   <trkpt lat="46.638055" lon="7.893384"><ele>644.5</ele></trkpt>
   <trkpt lat="46.637933" lon="7.893566"><ele>645</ele></trkpt>
   <trkpt lat="46.637826" lon="7.893705"><ele>645.5</ele></trkpt>
   <trkpt lat="46.637689" lon="7.893846"><ele>645.5</ele></trkpt>
   <trkpt lat="46.63758" lon="7.893944"><ele>645</ele></trkpt>
   <trkpt lat="46.637424" lon="7.894064"><ele>644.25</ele></trkpt>
   <trkpt lat="46.637106" lon="7.894264"><ele>643.75</ele></trkpt>
   <trkpt lat="46.63672" lon="7.89447"><ele>644.5</ele></trkpt>
   <trkpt lat="46.635213" lon="7.89529"><ele>645.5</ele></trkpt>
   <trkpt lat="46.635063" lon="7.895398"><ele>645</ele></trkpt>
   <trkpt lat="46.634933" lon="7.89551"><ele>645</ele></trkpt>
   <trkpt lat="46.634792" lon="7.895659"><ele>645.5</ele></trkpt>
   <trkpt lat="46.634659" lon="7.89583"><ele>646</ele></trkpt>
   <trkpt lat="46.634541" lon="7.896019"><ele>646.5</ele></trkpt>
   <trkpt lat="46.634482" lon="7.896126"><ele>647.5</ele></trkpt>
   <trkpt lat="46.634423" lon="7.896245"><ele>647.25</ele></trkpt>
   <trkpt lat="46.634374" lon="7.896362"><ele>647</ele></trkpt>
   <trkpt lat="46.634298" lon="7.89657"><ele>647</ele></trkpt>
   <trkpt lat="46.63426" lon="7.896695"><ele>647.25</ele></trkpt>
   <trkpt lat="46.634201" lon="7.896932"><ele>648.5</ele></trkpt>
   <trkpt lat="46.634165" lon="7.897136"><ele>648.75</ele></trkpt>
   <trkpt lat="46.634138" lon="7.897355"><ele>649</ele></trkpt>
   <trkpt lat="46.634072" lon="7.898012"><ele>651</ele></trkpt>
   <trkpt lat="46.634051" lon="7.898201"><ele>651.75</ele></trkpt>
   <trkpt lat="46.634016" lon="7.898405"><ele>651.25</ele></trkpt>
   <trkpt lat="46.633997" lon="7.898487"><ele>651</ele></trkpt>
   <trkpt lat="46.633952" lon="7.898626"><ele>650.75</ele></trkpt>
   <trkpt lat="46.633885" lon="7.898783"><ele>650.25</ele></trkpt>
   <trkpt lat="46.633828" lon="7.898894"><ele>650.5</ele></trkpt>
   <trkpt lat="46.63375" lon="7.899019"><ele>650.5</ele></trkpt>
   <trkpt lat="46.63358" lon="7.899213"><ele>651.5</ele></trkpt>
   <trkpt lat="46.633404" lon="7.899362"><ele>651.25</ele></trkpt>
   <trkpt lat="46.632814" lon="7.899804"><ele>652</ele></trkpt>
   <trkpt lat="46.632439" lon="7.900095"><ele>652</ele></trkpt>
   <trkpt lat="46.632272" lon="7.900257"><ele>652</ele></trkpt>
   <trkpt lat="46.632172" lon="7.900367"><ele>652</ele></trkpt>
   <trkpt lat="46.632004" lon="7.900508"><ele>652</ele></trkpt>
   <trkpt lat="46.631626" lon="7.900812"><ele>651.75</ele></trkpt>
   <trkpt lat="46.631359" lon="7.900984"><ele>652</ele></trkpt>
   <trkpt lat="46.630996" lon="7.901192"><ele>653</ele></trkpt>
   <trkpt lat="46.630838" lon="7.901301"><ele>653.75</ele></trkpt>
   <trkpt lat="46.630764" lon="7.901364"><ele>654</ele></trkpt>
   <trkpt lat="46.630596" lon="7.901529"><ele>653.75</ele></trkpt>
   <trkpt lat="46.630401" lon="7.90176"><ele>653.5</ele></trkpt>
   <trkpt lat="46.630157" lon="7.902139"><ele>654.25</ele></trkpt>
   <trkpt lat="46.629782" lon="7.902742"><ele>655.25</ele></trkpt>
   <trkpt lat="46.629609" lon="7.902924"><ele>655.5</ele></trkpt>
   <trkpt lat="46.629398" lon="7.903053"><ele>656.75</ele></trkpt>
   <trkpt lat="46.629265" lon="7.903097"><ele>656.75</ele></trkpt>
   <trkpt lat="46.629104" lon="7.903119"><ele>657</ele></trkpt>
   <trkpt lat="46.628934" lon="7.903096"><ele>657.75</ele></trkpt>
   <trkpt lat="46.62882" lon="7.903056"><ele>657.5</ele></trkpt>
   <trkpt lat="46.628562" lon="7.902969"><ele>656.5</ele></trkpt>
   <trkpt lat="46.628343" lon="7.902882"><ele>657.25</ele></trkpt>
   <trkpt lat="46.628104" lon="7.902861"><ele>657.75</ele></trkpt>
   <trkpt lat="46.627857" lon="7.902908"><ele>658.25</ele></trkpt>
   <trkpt lat="46.626463" lon="7.903278"><ele>663</ele></trkpt>
   <trkpt lat="46.625947" lon="7.903515"><ele>664.5</ele></trkpt>
   <trkpt lat="46.625489" lon="7.903779"><ele>665.5</ele></trkpt>
   <trkpt lat="46.624907" lon="7.903909"><ele>667</ele></trkpt>
   <trkpt lat="46.624302" lon="7.903959"><ele>667.75</ele></trkpt>
   <trkpt lat="46.623223" lon="7.903659"><ele>671.75</ele></trkpt>
   <trkpt lat="46.622656" lon="7.903629"><ele>673.25</ele></trkpt>
   <trkpt lat="46.62237" lon="7.903618"><ele>673.75</ele></trkpt>
   <trkpt lat="46.622139" lon="7.903515"><ele>675</ele></trkpt>
   <trkpt lat="46.62027" lon="7.902346"><ele>684.75</ele></trkpt>
   <trkpt lat="46.619755" lon="7.902174"><ele>688.25</ele></trkpt>
   <trkpt lat="46.619224" lon="7.902257"><ele>690.75</ele></trkpt>
   <trkpt lat="46.618435" lon="7.902495"><ele>696.25</ele></trkpt>
   <trkpt lat="46.618124" lon="7.902654"><ele>699</ele></trkpt>
   <trkpt lat="46.617949" lon="7.902663"><ele>700</ele></trkpt>
   <trkpt lat="46.617793" lon="7.90262"><ele>700.75</ele></trkpt>
   <trkpt lat="46.617312" lon="7.902313"><ele>703.75</ele></trkpt>
   <trkpt lat="46.616946" lon="7.902065"><ele>706</ele></trkpt>
   <trkpt lat="46.616173" lon="7.901893"><ele>710.75</ele></trkpt>
   <trkpt lat="46.615932" lon="7.901918"><ele>712.25</ele></trkpt>
   <trkpt lat="46.615709" lon="7.902029"><ele>713.75</ele></trkpt>
   <trkpt lat="46.615496" lon="7.902187"><ele>714</ele></trkpt>
   <trkpt lat="46.615283" lon="7.902331"><ele>711.5</ele></trkpt>
   <trkpt lat="46.615045" lon="7.902506"><ele>718.25</ele></trkpt>
   <trkpt lat="46.614717" lon="7.902681"><ele>721.75</ele></trkpt>
   <trkpt lat="46.614498" lon="7.902835"><ele>722.5</ele></trkpt>
   <trkpt lat="46.614409" lon="7.902879"><ele>723</ele></trkpt>
   <trkpt lat="46.614326" lon="7.902905"><ele>724</ele></trkpt>
   <trkpt lat="46.614143" lon="7.902933"><ele>726.75</ele></trkpt>
   <trkpt lat="46.613956" lon="7.902936"><ele>726.5</ele></trkpt>
   <trkpt lat="46.613877" lon="7.90292"><ele>726.25</ele></trkpt>
   <trkpt lat="46.613803" lon="7.902894"><ele>726.25</ele></trkpt>
   <trkpt lat="46.613729" lon="7.902854"><ele>726.25</ele></trkpt>
   <trkpt lat="46.613576" lon="7.902748"><ele>726.75</ele></trkpt>
   <trkpt lat="46.613186" lon="7.902484"><ele>727</ele></trkpt>
   <trkpt lat="46.612947" lon="7.902364"><ele>726.75</ele></trkpt>
   <trkpt lat="46.612789" lon="7.902275"><ele>727.25</ele></trkpt>
   <trkpt lat="46.61246" lon="7.902064"><ele>727.25</ele></trkpt>
   <trkpt lat="46.612246" lon="7.901989"><ele>728.5</ele></trkpt>
   <trkpt lat="46.612034" lon="7.90196"><ele>728.75</ele></trkpt>
   <trkpt lat="46.611775" lon="7.901981"><ele>728.75</ele></trkpt>
   <trkpt lat="46.610699" lon="7.902448"><ele>730.75</ele></trkpt>
   <trkpt lat="46.60976" lon="7.902687"><ele>732.25</ele></trkpt>
   <trkpt lat="46.609332" lon="7.902745"><ele>733.25</ele></trkpt>
   <trkpt lat="46.608955" lon="7.902845"><ele>732.75</ele></trkpt>
   <trkpt lat="46.608798" lon="7.902944"><ele>733.25</ele></trkpt>
   <trkpt lat="46.608536" lon="7.903158"><ele>734</ele></trkpt>
   <trkpt lat="46.608255" lon="7.903417"><ele>735.5</ele></trkpt>
   <trkpt lat="46.608159" lon="7.903539"><ele>735.75</ele></trkpt>
   <trkpt lat="46.60806" lon="7.903683"><ele>734.25</ele></trkpt>
   <trkpt lat="46.607979" lon="7.903822"><ele>736</ele></trkpt>
   <trkpt lat="46.607909" lon="7.903971"><ele>736.25</ele></trkpt>
   <trkpt lat="46.607829" lon="7.904197"><ele>734.25</ele></trkpt>
   <trkpt lat="46.607783" lon="7.904378"><ele>734</ele></trkpt>
   <trkpt lat="46.607731" lon="7.904539"><ele>734</ele></trkpt>
   <trkpt lat="46.607641" lon="7.904767"><ele>734.5</ele></trkpt>
   <trkpt lat="46.607517" lon="7.904986"><ele>735</ele></trkpt>
   <trkpt lat="46.607364" lon="7.905165"><ele>735.25</ele></trkpt>
   <trkpt lat="46.60722" lon="7.905279"><ele>736</ele></trkpt>
   <trkpt lat="46.60708" lon="7.905357"><ele>736</ele></trkpt>
   <trkpt lat="46.6069" lon="7.905419"><ele>736</ele></trkpt>
   <trkpt lat="46.606772" lon="7.905422"><ele>736.5</ele></trkpt>
   <trkpt lat="46.606283" lon="7.905368"><ele>738</ele></trkpt>
   <trkpt lat="46.606154" lon="7.905375"><ele>738</ele></trkpt>
   <trkpt lat="46.606023" lon="7.905399"><ele>738.75</ele></trkpt>
   <trkpt lat="46.605841" lon="7.90548"><ele>739</ele></trkpt>
   <trkpt lat="46.604547" lon="7.90618"><ele>745</ele></trkpt>
   <trkpt lat="46.604144" lon="7.906349"><ele>747</ele></trkpt>
   <trkpt lat="46.603314" lon="7.906646"><ele>753.25</ele></trkpt>
   <trkpt lat="46.603127" lon="7.906692"><ele>755.5</ele></trkpt>
   <trkpt lat="46.602975" lon="7.906706"><ele>757.5</ele></trkpt>
   <trkpt lat="46.602699" lon="7.906725"><ele>759.75</ele></trkpt>
   <trkpt lat="46.602411" lon="7.906711"><ele>763.5</ele></trkpt>
   <trkpt lat="46.601939" lon="7.906649"><ele>769</ele></trkpt>
   <trkpt lat="46.601783" lon="7.906619"><ele>769.75</ele></trkpt>
   <trkpt lat="46.60119" lon="7.906426"><ele>776</ele></trkpt>
   <trkpt lat="46.60106" lon="7.906413"><ele>777.5</ele></trkpt>
   <trkpt lat="46.600954" lon="7.90642"><ele>778.25</ele></trkpt>
   <trkpt lat="46.600801" lon="7.906454"><ele>779</ele></trkpt>
   <trkpt lat="46.600651" lon="7.90651"><ele>780.25</ele></trkpt>
   <trkpt lat="46.600345" lon="7.906663"><ele>783.25</ele></trkpt>
   <trkpt lat="46.600184" lon="7.90677"><ele>783.25</ele></trkpt>
   <trkpt lat="46.600065" lon="7.906872"><ele>785</ele></trkpt>
   <trkpt lat="46.599928" lon="7.907028"><ele>786</ele></trkpt>
   <trkpt lat="46.599793" lon="7.907245"><ele>785.5</ele></trkpt>
   <trkpt lat="46.599686" lon="7.90739"><ele>787.5</ele></trkpt>
   <trkpt lat="46.599538" lon="7.907549"><ele>788.75</ele></trkpt>
   <trkpt lat="46.599384" lon="7.907659"><ele>790.5</ele></trkpt>
   <trkpt lat="46.59927" lon="7.907716"><ele>792.75</ele></trkpt>
   <trkpt lat="46.598982" lon="7.907832"><ele>795.5</ele></trkpt>
   <trkpt lat="46.598889" lon="7.907863"><ele>796</ele></trkpt>
   <trkpt lat="46.598424" lon="7.907955"><ele>796</ele></trkpt>
   <trkpt lat="46.598352" lon="7.907969"><ele>795.25</ele></trkpt>
   <trkpt lat="46.598338" lon="7.907971"><ele>795.25</ele></trkpt>
   <trkpt lat="46.598067" lon="7.908166"><ele>794.75</ele></trkpt>
   <trkpt lat="46.597666" lon="7.908249"><ele>793.25</ele></trkpt>
   <trkpt lat="46.597588" lon="7.908265"><ele>793.25</ele></trkpt>
   <trkpt lat="46.597497" lon="7.908284"><ele>793.5</ele></trkpt>
   <trkpt lat="46.597284" lon="7.908322"><ele>795.25</ele></trkpt>
   <trkpt lat="46.597253" lon="7.908327"><ele>795.5</ele></trkpt>
   <trkpt lat="46.597127" lon="7.90835"><ele>795</ele></trkpt>
   <trkpt lat="46.596852" lon="7.908365"><ele>794.5</ele></trkpt>
   <trkpt lat="46.596545" lon="7.90843"><ele>795.25</ele></trkpt>
   <trkpt lat="46.596476" lon="7.90843"><ele>795.25</ele></trkpt>
   <trkpt lat="46.596383" lon="7.908412"><ele>795.5</ele></trkpt>
   <trkpt lat="46.596046" lon="7.90828"><ele>796.5</ele></trkpt>
   <trkpt lat="46.595947" lon="7.908267"><ele>797</ele></trkpt>
   <trkpt lat="46.595837" lon="7.908272"><ele>797</ele></trkpt>
   <trkpt lat="46.59575" lon="7.908296"><ele>796.75</ele></trkpt>
   <trkpt lat="46.595642" lon="7.908348"><ele>796.25</ele></trkpt>
   <trkpt lat="46.594994" lon="7.908755"><ele>796.25</ele></trkpt>
   <trkpt lat="46.594919" lon="7.908811"><ele>793.75</ele></trkpt>
   <trkpt lat="46.59484" lon="7.908893"><ele>791.5</ele></trkpt>
   <trkpt lat="46.59478" lon="7.908973"><ele>790.5</ele></trkpt>
   <trkpt lat="46.594711" lon="7.909096"><ele>791</ele></trkpt>
   <trkpt lat="46.59462" lon="7.909267"><ele>785.5</ele></trkpt>
   <trkpt lat="46.594256" lon="7.90996"><ele>792.5</ele></trkpt>
   <trkpt lat="46.594188" lon="7.9101"><ele>795.75</ele></trkpt>
   <trkpt lat="46.594131" lon="7.910272"><ele>798</ele></trkpt>
   <trkpt lat="46.594099" lon="7.910424"><ele>799.5</ele></trkpt>
   <trkpt lat="46.594081" lon="7.910562"><ele>801</ele></trkpt>
   <trkpt lat="46.594073" lon="7.910659"><ele>802</ele></trkpt>
   <trkpt lat="46.594071" lon="7.91079"><ele>803.5</ele></trkpt>
   <trkpt lat="46.594082" lon="7.910962"><ele>805.25</ele></trkpt>
   <trkpt lat="46.594174" lon="7.91181"><ele>815.25</ele></trkpt>
   <trkpt lat="46.59419" lon="7.911922"><ele>816.25</ele></trkpt>
   <trkpt lat="46.594252" lon="7.912236"><ele>819.75</ele></trkpt>
   <trkpt lat="46.594303" lon="7.912697"><ele>825.5</ele></trkpt>
   <trkpt lat="46.594352" lon="7.912963"><ele>829.25</ele></trkpt>
   <trkpt lat="46.594373" lon="7.913043"><ele>830.5</ele></trkpt>
   <trkpt lat="46.594415" lon="7.913163"><ele>832</ele></trkpt>
   <trkpt lat="46.594455" lon="7.913255"><ele>833</ele></trkpt>
   <trkpt lat="46.594559" lon="7.913431"><ele>836.25</ele></trkpt>
   <trkpt lat="46.594621" lon="7.913505"><ele>837.75</ele></trkpt>
   <trkpt lat="46.594894" lon="7.913778"><ele>842.75</ele></trkpt>
   <trkpt lat="46.595049" lon="7.913981"><ele>846.25</ele></trkpt>
   <trkpt lat="46.595113" lon="7.91405"><ele>847.5</ele></trkpt>
   <trkpt lat="46.595196" lon="7.914126"><ele>849</ele></trkpt>
   <trkpt lat="46.595239" lon="7.914156"><ele>849.5</ele></trkpt>
   <trkpt lat="46.595346" lon="7.914211"><ele>849.25</ele></trkpt>
   <trkpt lat="46.595414" lon="7.914228"><ele>847.5</ele></trkpt>
   <trkpt lat="46.595788" lon="7.914266"><ele>858.5</ele></trkpt>
   <trkpt lat="46.595898" lon="7.914275"><ele>862.25</ele></trkpt>
   <trkpt lat="46.596023" lon="7.914297"><ele>864.25</ele></trkpt>
   <trkpt lat="46.596109" lon="7.914331"><ele>865.75</ele></trkpt>
   <trkpt lat="46.596192" lon="7.914376"><ele>866.5</ele></trkpt>
   <trkpt lat="46.596312" lon="7.91447"><ele>868.5</ele></trkpt>
   <trkpt lat="46.596405" lon="7.914564"><ele>871.25</ele></trkpt>
   <trkpt lat="46.596464" lon="7.914638"><ele>873</ele></trkpt>
   <trkpt lat="46.596929" lon="7.915269"><ele>884.75</ele></trkpt>
   <trkpt lat="46.597031" lon="7.91537"><ele>886.5</ele></trkpt>
   <trkpt lat="46.597145" lon="7.91544"><ele>890.75</ele></trkpt>
   <trkpt lat="46.597282" lon="7.915484"><ele>895.5</ele></trkpt>
   <trkpt lat="46.597399" lon="7.91549"><ele>899.5</ele></trkpt>
   <trkpt lat="46.597506" lon="7.915471"><ele>903.25</ele></trkpt>
   <trkpt lat="46.597606" lon="7.915434"><ele>906.5</ele></trkpt>
   <trkpt lat="46.597916" lon="7.915277"><ele>906.75</ele></trkpt>
   <trkpt lat="46.598302" lon="7.915012"><ele>915</ele></trkpt>
   <trkpt lat="46.598457" lon="7.914916"><ele>917.75</ele></trkpt>
   <trkpt lat="46.599397" lon="7.914476"><ele>936.75</ele></trkpt>
   <trkpt lat="46.599442" lon="7.914456"><ele>937.25</ele></trkpt>
   <trkpt lat="46.599559" lon="7.914411"><ele>946.5</ele></trkpt>
   <trkpt lat="46.599598" lon="7.914404"><ele>946.75</ele></trkpt>
   <trkpt lat="46.599657" lon="7.914396"><ele>947.75</ele></trkpt>
   <trkpt lat="46.600804" lon="7.914352"><ele>963.75</ele></trkpt>
   <trkpt lat="46.60099" lon="7.914363"><ele>963.75</ele></trkpt>
   <trkpt lat="46.601066" lon="7.914381"><ele>963.75</ele></trkpt>
   <trkpt lat="46.601142" lon="7.914411"><ele>965.25</ele></trkpt>
   <trkpt lat="46.601219" lon="7.914452"><ele>968.75</ele></trkpt>
   <trkpt lat="46.601306" lon="7.914512"><ele>973.5</ele></trkpt>
   <trkpt lat="46.601473" lon="7.914655"><ele>979.75</ele></trkpt>
   <trkpt lat="46.601527" lon="7.91469"><ele>979.75</ele></trkpt>
   <trkpt lat="46.601658" lon="7.914752"><ele>980.25</ele></trkpt>
   <trkpt lat="46.601784" lon="7.914776"><ele>983</ele></trkpt>
   <trkpt lat="46.601838" lon="7.914777"><ele>983.5</ele></trkpt>
   <trkpt lat="46.601922" lon="7.914761"><ele>983.5</ele></trkpt>
   <trkpt lat="46.601938" lon="7.914757"><ele>983.75</ele></trkpt>
   <trkpt lat="46.602089" lon="7.914698"><ele>984</ele></trkpt>
   <trkpt lat="46.602546" lon="7.914425"><ele>990</ele></trkpt>
   <trkpt lat="46.602631" lon="7.914394"><ele>990.5</ele></trkpt>
   <trkpt lat="46.602727" lon="7.914373"><ele>992</ele></trkpt>
   <trkpt lat="46.602869" lon="7.914381"><ele>993</ele></trkpt>
   <trkpt lat="46.60365" lon="7.91451"><ele>1010</ele></trkpt>
   <trkpt lat="46.603909" lon="7.914552"><ele>1007.5</ele></trkpt>
   <trkpt lat="46.604199" lon="7.914566"><ele>1004.75</ele></trkpt>
   <trkpt lat="46.604336" lon="7.914551"><ele>1003.5</ele></trkpt>
   <trkpt lat="46.604435" lon="7.914541"><ele>1003.5</ele></trkpt>
   <trkpt lat="46.604524" lon="7.914522"><ele>1007.25</ele></trkpt>
   <trkpt lat="46.60458" lon="7.914497"><ele>1009</ele></trkpt>
   <trkpt lat="46.604648" lon="7.91446"><ele>1010.75</ele></trkpt>
   <trkpt lat="46.604839" lon="7.914311"><ele>1023.25</ele></trkpt>
   <trkpt lat="46.605126" lon="7.914082"><ele>1030.75</ele></trkpt>
   <trkpt lat="46.605258" lon="7.913981"><ele>1023.25</ele></trkpt>
   <trkpt lat="46.605452" lon="7.913833"><ele>1026.75</ele></trkpt>
   <trkpt lat="46.605671" lon="7.913667"><ele>1041.25</ele></trkpt>
   <trkpt lat="46.606266" lon="7.913196"><ele>1056.25</ele></trkpt>
   <trkpt lat="46.606361" lon="7.913122"><ele>1052.5</ele></trkpt>
   <trkpt lat="46.606476" lon="7.913032"><ele>1051.75</ele></trkpt>
   <trkpt lat="46.606682" lon="7.912877"><ele>1056.25</ele></trkpt>
   <trkpt lat="46.606851" lon="7.912797"><ele>1060.25</ele></trkpt>
   <trkpt lat="46.606906" lon="7.912778"><ele>1061.25</ele></trkpt>
   <trkpt lat="46.606983" lon="7.912765"><ele>1063</ele></trkpt>
   <trkpt lat="46.607105" lon="7.912756"><ele>1065</ele></trkpt>
   <trkpt lat="46.607257" lon="7.912731"><ele>1068.25</ele></trkpt>
   <trkpt lat="46.607333" lon="7.912703"><ele>1071.5</ele></trkpt>
   <trkpt lat="46.607452" lon="7.912633"><ele>1075.5</ele></trkpt>
   <trkpt lat="46.607679" lon="7.912433"><ele>1080.25</ele></trkpt>
   <trkpt lat="46.607774" lon="7.912371"><ele>1082.25</ele></trkpt>
   <trkpt lat="46.607844" lon="7.912345"><ele>1083.5</ele></trkpt>
   <trkpt lat="46.607913" lon="7.91232"><ele>1084.5</ele></trkpt>
   <trkpt lat="46.608025" lon="7.912279"><ele>1086</ele></trkpt>
   <trkpt lat="46.608139" lon="7.912211"><ele>1088.25</ele></trkpt>
   <trkpt lat="46.608272" lon="7.912093"><ele>1091.5</ele></trkpt>
   <trkpt lat="46.608466" lon="7.911895"><ele>1095.25</ele></trkpt>
   <trkpt lat="46.608519" lon="7.911853"><ele>1096.5</ele></trkpt>
   <trkpt lat="46.60863" lon="7.911789"><ele>1099.25</ele></trkpt>
   <trkpt lat="46.608763" lon="7.911736"><ele>1100</ele></trkpt>
   <trkpt lat="46.608815" lon="7.911725"><ele>1100.5</ele></trkpt>
   <trkpt lat="46.60893" lon="7.911719"><ele>1102.5</ele></trkpt>
   <trkpt lat="46.609185" lon="7.911744"><ele>1109.25</ele></trkpt>
   <trkpt lat="46.609296" lon="7.911727"><ele>1111.75</ele></trkpt>
   <trkpt lat="46.609346" lon="7.911713"><ele>1113</ele></trkpt>
   <trkpt lat="46.609445" lon="7.911667"><ele>1115</ele></trkpt>
   <trkpt lat="46.609881" lon="7.911391"><ele>1124.25</ele></trkpt>
   <trkpt lat="46.609983" lon="7.911343"><ele>1126</ele></trkpt>
   <trkpt lat="46.610069" lon="7.911319"><ele>1127.75</ele></trkpt>
   <trkpt lat="46.610158" lon="7.91131"><ele>1130.25</ele></trkpt>
   <trkpt lat="46.61024" lon="7.911318"><ele>1132.25</ele></trkpt>
   <trkpt lat="46.610382" lon="7.911367"><ele>1137.5</ele></trkpt>
   <trkpt lat="46.610461" lon="7.911415"><ele>1139</ele></trkpt>
   <trkpt lat="46.610598" lon="7.911537"><ele>1141.75</ele></trkpt>
   <trkpt lat="46.610722" lon="7.911705"><ele>1144.5</ele></trkpt>
   <trkpt lat="46.610806" lon="7.911935"><ele>1147.5</ele></trkpt>
   <trkpt lat="46.610861" lon="7.912169"><ele>1150.5</ele></trkpt>
   <trkpt lat="46.610874" lon="7.912412"><ele>1153.25</ele></trkpt>
   <trkpt lat="46.610843" lon="7.91269"><ele>1156.75</ele></trkpt>
   <trkpt lat="46.610768" lon="7.9129"><ele>1159.5</ele></trkpt>
   <trkpt lat="46.61066" lon="7.9131"><ele>1162.25</ele></trkpt>
   <trkpt lat="46.610523" lon="7.913254"><ele>1165.25</ele></trkpt>
   <trkpt lat="46.610367" lon="7.91336"><ele>1168</ele></trkpt>
   <trkpt lat="46.610196" lon="7.913406"><ele>1171</ele></trkpt>
   <trkpt lat="46.610021" lon="7.913386"><ele>1174</ele></trkpt>
   <trkpt lat="46.609859" lon="7.913319"><ele>1177</ele></trkpt>
   <trkpt lat="46.609687" lon="7.913283"><ele>1177</ele></trkpt>
   <trkpt lat="46.609607" lon="7.913287"><ele>1177.5</ele></trkpt>
   <trkpt lat="46.609528" lon="7.913305"><ele>1178.25</ele></trkpt>
   <trkpt lat="46.609455" lon="7.913338"><ele>1180</ele></trkpt>
   <trkpt lat="46.609361" lon="7.913396"><ele>1180.5</ele></trkpt>
   <trkpt lat="46.609278" lon="7.913462"><ele>1181</ele></trkpt>
   <trkpt lat="46.609174" lon="7.913565"><ele>1182</ele></trkpt>
   <trkpt lat="46.60904" lon="7.913697"><ele>1181</ele></trkpt>
   <trkpt lat="46.608114" lon="7.91461"><ele>1187.25</ele></trkpt>
   <trkpt lat="46.607953" lon="7.914781"><ele>1190.75</ele></trkpt>
   <trkpt lat="46.607644" lon="7.9153"><ele>1200.5</ele></trkpt>
   <trkpt lat="46.607582" lon="7.915417"><ele>1202</ele></trkpt>
   <trkpt lat="46.607536" lon="7.915524"><ele>1204</ele></trkpt>
   <trkpt lat="46.607471" lon="7.915743"><ele>1206.25</ele></trkpt>
   <trkpt lat="46.607439" lon="7.915932"><ele>1208.5</ele></trkpt>
   <trkpt lat="46.607427" lon="7.916044"><ele>1210</ele></trkpt>
   <trkpt lat="46.607426" lon="7.916281"><ele>1212.25</ele></trkpt>
   <trkpt lat="46.60747" lon="7.917179"><ele>1223.25</ele></trkpt>
   <trkpt lat="46.607463" lon="7.917285"><ele>1224.75</ele></trkpt>
   <trkpt lat="46.60745" lon="7.917377"><ele>1226.25</ele></trkpt>
   <trkpt lat="46.607431" lon="7.917467"><ele>1227.5</ele></trkpt>
   <trkpt lat="46.607387" lon="7.917621"><ele>1229.5</ele></trkpt>
   <trkpt lat="46.607335" lon="7.917739"><ele>1231</ele></trkpt>
   <trkpt lat="46.607286" lon="7.91782"><ele>1232.25</ele></trkpt>
   <trkpt lat="46.6071" lon="7.918088"><ele>1238.5</ele></trkpt>
   <trkpt lat="46.607021" lon="7.91823"><ele>1240.5</ele></trkpt>
   <trkpt lat="46.606952" lon="7.918398"><ele>1242.75</ele></trkpt>
   <trkpt lat="46.606861" lon="7.918707"><ele>1248.25</ele></trkpt>
   <trkpt lat="46.606804" lon="7.918883"><ele>1251.25</ele></trkpt>
   <trkpt lat="46.606762" lon="7.918978"><ele>1252.25</ele></trkpt>
   <trkpt lat="46.606666" lon="7.919135"><ele>1253</ele></trkpt>
   <trkpt lat="46.606555" lon="7.919258"><ele>1256.25</ele></trkpt>
   <trkpt lat="46.606498" lon="7.919305"><ele>1257.25</ele></trkpt>
   <trkpt lat="46.606286" lon="7.919424"><ele>1259.5</ele></trkpt>
   <trkpt lat="46.606042" lon="7.919555"><ele>1262.75</ele></trkpt>
   <trkpt lat="46.605885" lon="7.919634"><ele>1263.75</ele></trkpt>
   <trkpt lat="46.605732" lon="7.919714"><ele>1266.75</ele></trkpt>
   <trkpt lat="46.605591" lon="7.919788"><ele>1268.25</ele></trkpt>
   <trkpt lat="46.605453" lon="7.91988"><ele>1268.25</ele></trkpt>
   <trkpt lat="46.605399" lon="7.919926"><ele>1269</ele></trkpt>
   <trkpt lat="46.605354" lon="7.919976"><ele>1270.5</ele></trkpt>
   <trkpt lat="46.605229" lon="7.92014"><ele>1270.75</ele></trkpt>
   <trkpt lat="46.60519" lon="7.920199"><ele>1270.5</ele></trkpt>
   <trkpt lat="46.605137" lon="7.9203"><ele>1271.5</ele></trkpt>
   <trkpt lat="46.605077" lon="7.920454"><ele>1272.75</ele></trkpt>
   <trkpt lat="46.604948" lon="7.920842"><ele>1273</ele></trkpt>
   <trkpt lat="46.605077" lon="7.920454"><ele>1272.75</ele></trkpt>
   <trkpt lat="46.605137" lon="7.9203"><ele>1271.5</ele></trkpt>
   <trkpt lat="46.60519" lon="7.920199"><ele>1270.5</ele></trkpt>
   <trkpt lat="46.605229" lon="7.92014"><ele>1270.75</ele></trkpt>
   <trkpt lat="46.605354" lon="7.919976"><ele>1270.5</ele></trkpt>
   <trkpt lat="46.605399" lon="7.919926"><ele>1269</ele></trkpt>
   <trkpt lat="46.605453" lon="7.91988"><ele>1268.25</ele></trkpt>
   <trkpt lat="46.605591" lon="7.919788"><ele>1268.25</ele></trkpt>
   <trkpt lat="46.605732" lon="7.919714"><ele>1266.75</ele></trkpt>
   <trkpt lat="46.605885" lon="7.919634"><ele>1263.75</ele></trkpt>
   <trkpt lat="46.606042" lon="7.919555"><ele>1262.75</ele></trkpt>
   <trkpt lat="46.606286" lon="7.919424"><ele>1259.5</ele></trkpt>
   <trkpt lat="46.606498" lon="7.919305"><ele>1257.25</ele></trkpt>
   <trkpt lat="46.606555" lon="7.919258"><ele>1256.25</ele></trkpt>
   <trkpt lat="46.606666" lon="7.919135"><ele>1253</ele></trkpt>
   <trkpt lat="46.606762" lon="7.918978"><ele>1252.25</ele></trkpt>
   <trkpt lat="46.606804" lon="7.918883"><ele>1251.25</ele></trkpt>
   <trkpt lat="46.606861" lon="7.918707"><ele>1248.25</ele></trkpt>
   <trkpt lat="46.606952" lon="7.918398"><ele>1242.75</ele></trkpt>
   <trkpt lat="46.607021" lon="7.91823"><ele>1240.5</ele></trkpt>
   <trkpt lat="46.6071" lon="7.918088"><ele>1238.5</ele></trkpt>
   <trkpt lat="46.607286" lon="7.91782"><ele>1232.25</ele></trkpt>
   <trkpt lat="46.607335" lon="7.917739"><ele>1231</ele></trkpt>
   <trkpt lat="46.607387" lon="7.917621"><ele>1229.5</ele></trkpt>
   <trkpt lat="46.607431" lon="7.917467"><ele>1227.5</ele></trkpt>
   <trkpt lat="46.60745" lon="7.917377"><ele>1226.25</ele></trkpt>
   <trkpt lat="46.607463" lon="7.917285"><ele>1224.75</ele></trkpt>
   <trkpt lat="46.60747" lon="7.917179"><ele>1223.25</ele></trkpt>
   <trkpt lat="46.607426" lon="7.916281"><ele>1212.25</ele></trkpt>
   <trkpt lat="46.607427" lon="7.916044"><ele>1210</ele></trkpt>
   <trkpt lat="46.607439" lon="7.915932"><ele>1208.5</ele></trkpt>
   <trkpt lat="46.607471" lon="7.915743"><ele>1206.25</ele></trkpt>
   <trkpt lat="46.607536" lon="7.915524"><ele>1204</ele></trkpt>
   <trkpt lat="46.607582" lon="7.915417"><ele>1202</ele></trkpt>
   <trkpt lat="46.607644" lon="7.9153"><ele>1200.5</ele></trkpt>
   <trkpt lat="46.607953" lon="7.914781"><ele>1190.75</ele></trkpt>
   <trkpt lat="46.608114" lon="7.91461"><ele>1187.25</ele></trkpt>
   <trkpt lat="46.60904" lon="7.913697"><ele>1181</ele></trkpt>
   <trkpt lat="46.609174" lon="7.913565"><ele>1182</ele></trkpt>
   <trkpt lat="46.609278" lon="7.913462"><ele>1181</ele></trkpt>
   <trkpt lat="46.609361" lon="7.913396"><ele>1180.5</ele></trkpt>
   <trkpt lat="46.609455" lon="7.913338"><ele>1180</ele></trkpt>
   <trkpt lat="46.609528" lon="7.913305"><ele>1178.25</ele></trkpt>
   <trkpt lat="46.609607" lon="7.913287"><ele>1177.5</ele></trkpt>
   <trkpt lat="46.609687" lon="7.913283"><ele>1177</ele></trkpt>
   <trkpt lat="46.609859" lon="7.913319"><ele>1174</ele></trkpt>
   <trkpt lat="46.610021" lon="7.913386"><ele>1171.25</ele></trkpt>
   <trkpt lat="46.610196" lon="7.913406"><ele>1168.25</ele></trkpt>
   <trkpt lat="46.610367" lon="7.91336"><ele>1165.5</ele></trkpt>
   <trkpt lat="46.610523" lon="7.913254"><ele>1162.75</ele></trkpt>
   <trkpt lat="46.61066" lon="7.9131"><ele>1160</ele></trkpt>
   <trkpt lat="46.610768" lon="7.9129"><ele>1157.25</ele></trkpt>
   <trkpt lat="46.610843" lon="7.91269"><ele>1154.5</ele></trkpt>
   <trkpt lat="46.610874" lon="7.912412"><ele>1151.25</ele></trkpt>
   <trkpt lat="46.610861" lon="7.912169"><ele>1148.5</ele></trkpt>
   <trkpt lat="46.610806" lon="7.911935"><ele>1145.75</ele></trkpt>
   <trkpt lat="46.610722" lon="7.911705"><ele>1142.75</ele></trkpt>
   <trkpt lat="46.610598" lon="7.911537"><ele>1140</ele></trkpt>
   <trkpt lat="46.610461" lon="7.911415"><ele>1137.5</ele></trkpt>
   <trkpt lat="46.610382" lon="7.911367"><ele>1137.5</ele></trkpt>
   <trkpt lat="46.61024" lon="7.911318"><ele>1132.25</ele></trkpt>
   <trkpt lat="46.610158" lon="7.91131"><ele>1130.25</ele></trkpt>
   <trkpt lat="46.610069" lon="7.911319"><ele>1127.75</ele></trkpt>
   <trkpt lat="46.609983" lon="7.911343"><ele>1126</ele></trkpt>
   <trkpt lat="46.609881" lon="7.911391"><ele>1124.25</ele></trkpt>
   <trkpt lat="46.609445" lon="7.911667"><ele>1115</ele></trkpt>
   <trkpt lat="46.609346" lon="7.911713"><ele>1113</ele></trkpt>
   <trkpt lat="46.609296" lon="7.911727"><ele>1111.75</ele></trkpt>
   <trkpt lat="46.609185" lon="7.911744"><ele>1109.25</ele></trkpt>
   <trkpt lat="46.60893" lon="7.911719"><ele>1102.5</ele></trkpt>
   <trkpt lat="46.608815" lon="7.911725"><ele>1100.5</ele></trkpt>
   <trkpt lat="46.608763" lon="7.911736"><ele>1100</ele></trkpt>
   <trkpt lat="46.60863" lon="7.911789"><ele>1099.25</ele></trkpt>
   <trkpt lat="46.608519" lon="7.911853"><ele>1096.5</ele></trkpt>
   <trkpt lat="46.608466" lon="7.911895"><ele>1095.25</ele></trkpt>
   <trkpt lat="46.608272" lon="7.912093"><ele>1091.5</ele></trkpt>
   <trkpt lat="46.608139" lon="7.912211"><ele>1088.25</ele></trkpt>
   <trkpt lat="46.608025" lon="7.912279"><ele>1086</ele></trkpt>
   <trkpt lat="46.607913" lon="7.91232"><ele>1084.5</ele></trkpt>
   <trkpt lat="46.607844" lon="7.912345"><ele>1083.5</ele></trkpt>
   <trkpt lat="46.607774" lon="7.912371"><ele>1082.25</ele></trkpt>
   <trkpt lat="46.607679" lon="7.912433"><ele>1080.25</ele></trkpt>
   <trkpt lat="46.607452" lon="7.912633"><ele>1075.5</ele></trkpt>
   <trkpt lat="46.607333" lon="7.912703"><ele>1071.5</ele></trkpt>
   <trkpt lat="46.607257" lon="7.912731"><ele>1068.25</ele></trkpt>
   <trkpt lat="46.607105" lon="7.912756"><ele>1065</ele></trkpt>
   <trkpt lat="46.606983" lon="7.912765"><ele>1063</ele></trkpt>
   <trkpt lat="46.606906" lon="7.912778"><ele>1061.25</ele></trkpt>
   <trkpt lat="46.606851" lon="7.912797"><ele>1060.25</ele></trkpt>
   <trkpt lat="46.606682" lon="7.912877"><ele>1056.25</ele></trkpt>
   <trkpt lat="46.606476" lon="7.913032"><ele>1051.75</ele></trkpt>
   <trkpt lat="46.606361" lon="7.913122"><ele>1052.5</ele></trkpt>
   <trkpt lat="46.606266" lon="7.913196"><ele>1056.25</ele></trkpt>
   <trkpt lat="46.605671" lon="7.913667"><ele>1041.25</ele></trkpt>
   <trkpt lat="46.605452" lon="7.913833"><ele>1026.75</ele></trkpt>
   <trkpt lat="46.605258" lon="7.913981"><ele>1023.25</ele></trkpt>
   <trkpt lat="46.605126" lon="7.914082"><ele>1030.75</ele></trkpt>
   <trkpt lat="46.604839" lon="7.914311"><ele>1023.25</ele></trkpt>
   <trkpt lat="46.604648" lon="7.91446"><ele>1010.75</ele></trkpt>
   <trkpt lat="46.60458" lon="7.914497"><ele>1009</ele></trkpt>
   <trkpt lat="46.604524" lon="7.914522"><ele>1007.25</ele></trkpt>
   <trkpt lat="46.604435" lon="7.914541"><ele>1003.5</ele></trkpt>
   <trkpt lat="46.604336" lon="7.914551"><ele>1004.5</ele></trkpt>
   <trkpt lat="46.604199" lon="7.914566"><ele>1006.25</ele></trkpt>
   <trkpt lat="46.603909" lon="7.914552"><ele>1010</ele></trkpt>
   <trkpt lat="46.60365" lon="7.91451"><ele>1010</ele></trkpt>
   <trkpt lat="46.602869" lon="7.914381"><ele>993</ele></trkpt>
   <trkpt lat="46.602727" lon="7.914373"><ele>992</ele></trkpt>
   <trkpt lat="46.602631" lon="7.914394"><ele>990.5</ele></trkpt>
   <trkpt lat="46.602546" lon="7.914425"><ele>990</ele></trkpt>
   <trkpt lat="46.602089" lon="7.914698"><ele>984</ele></trkpt>
   <trkpt lat="46.601938" lon="7.914757"><ele>983.75</ele></trkpt>
   <trkpt lat="46.601922" lon="7.914761"><ele>983.5</ele></trkpt>
   <trkpt lat="46.601838" lon="7.914777"><ele>983.5</ele></trkpt>
   <trkpt lat="46.601784" lon="7.914776"><ele>983</ele></trkpt>
   <trkpt lat="46.601658" lon="7.914752"><ele>980.25</ele></trkpt>
   <trkpt lat="46.601527" lon="7.91469"><ele>979.75</ele></trkpt>
   <trkpt lat="46.601473" lon="7.914655"><ele>979.75</ele></trkpt>
   <trkpt lat="46.601306" lon="7.914512"><ele>973.5</ele></trkpt>
   <trkpt lat="46.601219" lon="7.914452"><ele>968.75</ele></trkpt>
   <trkpt lat="46.601142" lon="7.914411"><ele>965.25</ele></trkpt>
   <trkpt lat="46.601066" lon="7.914381"><ele>963.75</ele></trkpt>
   <trkpt lat="46.60099" lon="7.914363"><ele>963.75</ele></trkpt>
   <trkpt lat="46.600804" lon="7.914352"><ele>961.25</ele></trkpt>
   <trkpt lat="46.599657" lon="7.914396"><ele>947.25</ele></trkpt>
   <trkpt lat="46.599598" lon="7.914404"><ele>946.5</ele></trkpt>
   <trkpt lat="46.599559" lon="7.914411"><ele>946.5</ele></trkpt>
   <trkpt lat="46.599442" lon="7.914456"><ele>937.25</ele></trkpt>
   <trkpt lat="46.599397" lon="7.914476"><ele>936.75</ele></trkpt>
   <trkpt lat="46.598457" lon="7.914916"><ele>917.75</ele></trkpt>
   <trkpt lat="46.598302" lon="7.915012"><ele>915</ele></trkpt>
   <trkpt lat="46.597916" lon="7.915277"><ele>906.75</ele></trkpt>
   <trkpt lat="46.597606" lon="7.915434"><ele>898.25</ele></trkpt>
   <trkpt lat="46.597506" lon="7.915471"><ele>895.75</ele></trkpt>
   <trkpt lat="46.597399" lon="7.91549"><ele>893</ele></trkpt>
   <trkpt lat="46.597282" lon="7.915484"><ele>890</ele></trkpt>
   <trkpt lat="46.597145" lon="7.91544"><ele>886.25</ele></trkpt>
   <trkpt lat="46.597031" lon="7.91537"><ele>886.5</ele></trkpt>
   <trkpt lat="46.596929" lon="7.915269"><ele>884.75</ele></trkpt>
   <trkpt lat="46.596464" lon="7.914638"><ele>873</ele></trkpt>
   <trkpt lat="46.596405" lon="7.914564"><ele>871.25</ele></trkpt>
   <trkpt lat="46.596312" lon="7.91447"><ele>868.5</ele></trkpt>
   <trkpt lat="46.596192" lon="7.914376"><ele>866.5</ele></trkpt>
   <trkpt lat="46.596109" lon="7.914331"><ele>865.75</ele></trkpt>
   <trkpt lat="46.596023" lon="7.914297"><ele>864.25</ele></trkpt>
   <trkpt lat="46.595898" lon="7.914275"><ele>862.25</ele></trkpt>
   <trkpt lat="46.595788" lon="7.914266"><ele>858.5</ele></trkpt>
   <trkpt lat="46.595414" lon="7.914228"><ele>847.5</ele></trkpt>
   <trkpt lat="46.595346" lon="7.914211"><ele>849.25</ele></trkpt>
   <trkpt lat="46.595239" lon="7.914156"><ele>849.5</ele></trkpt>
   <trkpt lat="46.595196" lon="7.914126"><ele>849</ele></trkpt>
   <trkpt lat="46.595113" lon="7.91405"><ele>847.5</ele></trkpt>
   <trkpt lat="46.595049" lon="7.913981"><ele>846.25</ele></trkpt>
   <trkpt lat="46.594894" lon="7.913778"><ele>842.75</ele></trkpt>
   <trkpt lat="46.594621" lon="7.913505"><ele>837.75</ele></trkpt>
   <trkpt lat="46.594559" lon="7.913431"><ele>836.25</ele></trkpt>
   <trkpt lat="46.594455" lon="7.913255"><ele>833</ele></trkpt>
   <trkpt lat="46.594415" lon="7.913163"><ele>832</ele></trkpt>
   <trkpt lat="46.594373" lon="7.913043"><ele>830.5</ele></trkpt>
   <trkpt lat="46.594352" lon="7.912963"><ele>829.25</ele></trkpt>
   <trkpt lat="46.594303" lon="7.912697"><ele>825.5</ele></trkpt>
   <trkpt lat="46.594252" lon="7.912236"><ele>819.75</ele></trkpt>
   <trkpt lat="46.59419" lon="7.911922"><ele>816.25</ele></trkpt>
   <trkpt lat="46.594174" lon="7.91181"><ele>815.25</ele></trkpt>
   <trkpt lat="46.594082" lon="7.910962"><ele>805.25</ele></trkpt>
   <trkpt lat="46.594071" lon="7.91079"><ele>803.5</ele></trkpt>
   <trkpt lat="46.594073" lon="7.910659"><ele>802</ele></trkpt>
   <trkpt lat="46.594081" lon="7.910562"><ele>801</ele></trkpt>
   <trkpt lat="46.594099" lon="7.910424"><ele>799.5</ele></trkpt>
   <trkpt lat="46.594131" lon="7.910272"><ele>798</ele></trkpt>
   <trkpt lat="46.594188" lon="7.9101"><ele>795.75</ele></trkpt>
   <trkpt lat="46.594256" lon="7.90996"><ele>792.5</ele></trkpt>
   <trkpt lat="46.59462" lon="7.909267"><ele>785.5</ele></trkpt>
   <trkpt lat="46.594711" lon="7.909096"><ele>791</ele></trkpt>
   <trkpt lat="46.59478" lon="7.908973"><ele>790.5</ele></trkpt>
   <trkpt lat="46.59484" lon="7.908893"><ele>791.5</ele></trkpt>
   <trkpt lat="46.594919" lon="7.908811"><ele>793.75</ele></trkpt>
   <trkpt lat="46.594994" lon="7.908755"><ele>796.25</ele></trkpt>
   <trkpt lat="46.595642" lon="7.908348"><ele>796.25</ele></trkpt>
   <trkpt lat="46.59575" lon="7.908296"><ele>796.75</ele></trkpt>
   <trkpt lat="46.595837" lon="7.908272"><ele>797</ele></trkpt>
   <trkpt lat="46.595947" lon="7.908267"><ele>797</ele></trkpt>
   <trkpt lat="46.596046" lon="7.90828"><ele>796.5</ele></trkpt>
   <trkpt lat="46.596383" lon="7.908412"><ele>795.5</ele></trkpt>
   <trkpt lat="46.596476" lon="7.90843"><ele>795.25</ele></trkpt>
   <trkpt lat="46.596545" lon="7.90843"><ele>795.25</ele></trkpt>
   <trkpt lat="46.596852" lon="7.908365"><ele>794.5</ele></trkpt>
   <trkpt lat="46.597127" lon="7.90835"><ele>795</ele></trkpt>
   <trkpt lat="46.597253" lon="7.908327"><ele>795.5</ele></trkpt>
   <trkpt lat="46.597284" lon="7.908322"><ele>795.25</ele></trkpt>
   <trkpt lat="46.597449" lon="7.908311"><ele>793.75</ele></trkpt>
   <trkpt lat="46.59767" lon="7.908318"><ele>792.5</ele></trkpt>
   <trkpt lat="46.597759" lon="7.908311"><ele>792.25</ele></trkpt>
   <trkpt lat="46.597923" lon="7.908281"><ele>793</ele></trkpt>
   <trkpt lat="46.598345" lon="7.908196"><ele>794.75</ele></trkpt>
   <trkpt lat="46.598327" lon="7.907916"><ele>796</ele></trkpt>
   <trkpt lat="46.598968" lon="7.90779"><ele>796.25</ele></trkpt>
   <trkpt lat="46.59927" lon="7.907716"><ele>792.75</ele></trkpt>
   <trkpt lat="46.599384" lon="7.907659"><ele>790.5</ele></trkpt>
   <trkpt lat="46.599538" lon="7.907549"><ele>788.75</ele></trkpt>
   <trkpt lat="46.599686" lon="7.90739"><ele>787.5</ele></trkpt>
   <trkpt lat="46.599793" lon="7.907245"><ele>785.5</ele></trkpt>
   <trkpt lat="46.599928" lon="7.907028"><ele>786</ele></trkpt>
   <trkpt lat="46.600065" lon="7.906872"><ele>785</ele></trkpt>
   <trkpt lat="46.600184" lon="7.90677"><ele>783.25</ele></trkpt>
   <trkpt lat="46.600345" lon="7.906663"><ele>783.25</ele></trkpt>
   <trkpt lat="46.600651" lon="7.90651"><ele>780.25</ele></trkpt>
   <trkpt lat="46.600801" lon="7.906454"><ele>779</ele></trkpt>
   <trkpt lat="46.600954" lon="7.90642"><ele>778.25</ele></trkpt>
   <trkpt lat="46.60106" lon="7.906413"><ele>777.5</ele></trkpt>
   <trkpt lat="46.60119" lon="7.906426"><ele>776</ele></trkpt>
   <trkpt lat="46.601783" lon="7.906619"><ele>769.75</ele></trkpt>
   <trkpt lat="46.601939" lon="7.906649"><ele>769</ele></trkpt>
   <trkpt lat="46.602411" lon="7.906711"><ele>763.5</ele></trkpt>
   <trkpt lat="46.602699" lon="7.906725"><ele>759.75</ele></trkpt>
   <trkpt lat="46.602975" lon="7.906706"><ele>757.5</ele></trkpt>
   <trkpt lat="46.603127" lon="7.906692"><ele>755.5</ele></trkpt>
   <trkpt lat="46.603314" lon="7.906646"><ele>753.25</ele></trkpt>
   <trkpt lat="46.604144" lon="7.906349"><ele>747</ele></trkpt>
   <trkpt lat="46.604547" lon="7.90618"><ele>745</ele></trkpt>
   <trkpt lat="46.605841" lon="7.90548"><ele>739</ele></trkpt>
   <trkpt lat="46.606023" lon="7.905399"><ele>738.75</ele></trkpt>
   <trkpt lat="46.606154" lon="7.905375"><ele>738</ele></trkpt>
   <trkpt lat="46.606283" lon="7.905368"><ele>738</ele></trkpt>
   <trkpt lat="46.606772" lon="7.905422"><ele>736.5</ele></trkpt>
   <trkpt lat="46.6069" lon="7.905419"><ele>736</ele></trkpt>
   <trkpt lat="46.60708" lon="7.905357"><ele>736</ele></trkpt>
   <trkpt lat="46.60722" lon="7.905279"><ele>736</ele></trkpt>
   <trkpt lat="46.607364" lon="7.905165"><ele>735.25</ele></trkpt>
   <trkpt lat="46.607517" lon="7.904986"><ele>735</ele></trkpt>
   <trkpt lat="46.607641" lon="7.904767"><ele>734.5</ele></trkpt>
   <trkpt lat="46.607731" lon="7.904539"><ele>734</ele></trkpt>
   <trkpt lat="46.607783" lon="7.904378"><ele>734</ele></trkpt>
   <trkpt lat="46.607829" lon="7.904197"><ele>734.25</ele></trkpt>
   <trkpt lat="46.607909" lon="7.903971"><ele>736.25</ele></trkpt>
   <trkpt lat="46.607979" lon="7.903822"><ele>736</ele></trkpt>
   <trkpt lat="46.60806" lon="7.903683"><ele>734.25</ele></trkpt>
   <trkpt lat="46.608159" lon="7.903539"><ele>735.75</ele></trkpt>
   <trkpt lat="46.608255" lon="7.903417"><ele>735.5</ele></trkpt>
   <trkpt lat="46.608536" lon="7.903158"><ele>734</ele></trkpt>
   <trkpt lat="46.608798" lon="7.902944"><ele>733.25</ele></trkpt>
   <trkpt lat="46.608955" lon="7.902845"><ele>732.75</ele></trkpt>
   <trkpt lat="46.609332" lon="7.902745"><ele>733.25</ele></trkpt>
   <trkpt lat="46.60976" lon="7.902687"><ele>732.25</ele></trkpt>
   <trkpt lat="46.610699" lon="7.902448"><ele>730.75</ele></trkpt>
   <trkpt lat="46.611775" lon="7.901981"><ele>728.75</ele></trkpt>
   <trkpt lat="46.612034" lon="7.90196"><ele>728.75</ele></trkpt>
   <trkpt lat="46.612246" lon="7.901989"><ele>728.5</ele></trkpt>
   <trkpt lat="46.61246" lon="7.902064"><ele>727.25</ele></trkpt>
   <trkpt lat="46.612789" lon="7.902275"><ele>727.25</ele></trkpt>
   <trkpt lat="46.612947" lon="7.902364"><ele>726.75</ele></trkpt>
   <trkpt lat="46.613186" lon="7.902484"><ele>727</ele></trkpt>
   <trkpt lat="46.613576" lon="7.902748"><ele>726.75</ele></trkpt>
   <trkpt lat="46.613729" lon="7.902854"><ele>726.25</ele></trkpt>
   <trkpt lat="46.613803" lon="7.902894"><ele>726.25</ele></trkpt>
   <trkpt lat="46.613877" lon="7.90292"><ele>726.25</ele></trkpt>
   <trkpt lat="46.613956" lon="7.902936"><ele>726.5</ele></trkpt>
   <trkpt lat="46.614143" lon="7.902933"><ele>726.75</ele></trkpt>
   <trkpt lat="46.614326" lon="7.902905"><ele>724</ele></trkpt>
   <trkpt lat="46.614409" lon="7.902879"><ele>723</ele></trkpt>
   <trkpt lat="46.614498" lon="7.902835"><ele>722.5</ele></trkpt>
   <trkpt lat="46.614717" lon="7.902681"><ele>721.75</ele></trkpt>
   <trkpt lat="46.615045" lon="7.902506"><ele>718.25</ele></trkpt>
   <trkpt lat="46.615283" lon="7.902331"><ele>711.5</ele></trkpt>
   <trkpt lat="46.615496" lon="7.902187"><ele>714</ele></trkpt>
   <trkpt lat="46.615709" lon="7.902029"><ele>713.75</ele></trkpt>
   <trkpt lat="46.615932" lon="7.901918"><ele>712.25</ele></trkpt>
   <trkpt lat="46.616173" lon="7.901893"><ele>710.75</ele></trkpt>
   <trkpt lat="46.616946" lon="7.902065"><ele>706</ele></trkpt>
   <trkpt lat="46.617312" lon="7.902313"><ele>703.75</ele></trkpt>
   <trkpt lat="46.617793" lon="7.90262"><ele>700.75</ele></trkpt>
   <trkpt lat="46.617949" lon="7.902663"><ele>700</ele></trkpt>
   <trkpt lat="46.618124" lon="7.902654"><ele>699</ele></trkpt>
   <trkpt lat="46.618435" lon="7.902495"><ele>696.25</ele></trkpt>
   <trkpt lat="46.619224" lon="7.902257"><ele>690.75</ele></trkpt>
   <trkpt lat="46.619755" lon="7.902174"><ele>688.25</ele></trkpt>
   <trkpt lat="46.62027" lon="7.902346"><ele>684.75</ele></trkpt>
   <trkpt lat="46.622139" lon="7.903515"><ele>675</ele></trkpt>
   <trkpt lat="46.62237" lon="7.903618"><ele>673.75</ele></trkpt>
   <trkpt lat="46.622656" lon="7.903629"><ele>673.25</ele></trkpt>
   <trkpt lat="46.623223" lon="7.903659"><ele>671.75</ele></trkpt>
   <trkpt lat="46.624302" lon="7.903959"><ele>667.75</ele></trkpt>
   <trkpt lat="46.624907" lon="7.903909"><ele>667</ele></trkpt>
   <trkpt lat="46.625489" lon="7.903779"><ele>665.5</ele></trkpt>
   <trkpt lat="46.625947" lon="7.903515"><ele>664.5</ele></trkpt>
   <trkpt lat="46.626463" lon="7.903278"><ele>663</ele></trkpt>
   <trkpt lat="46.627857" lon="7.902908"><ele>658.25</ele></trkpt>
   <trkpt lat="46.628104" lon="7.902861"><ele>657.75</ele></trkpt>
   <trkpt lat="46.628343" lon="7.902882"><ele>657.25</ele></trkpt>
   <trkpt lat="46.628562" lon="7.902969"><ele>656.5</ele></trkpt>
   <trkpt lat="46.62882" lon="7.903056"><ele>657.5</ele></trkpt>
   <trkpt lat="46.628934" lon="7.903096"><ele>657.75</ele></trkpt>
   <trkpt lat="46.629104" lon="7.903119"><ele>657</ele></trkpt>
   <trkpt lat="46.629265" lon="7.903097"><ele>656.75</ele></trkpt>
   <trkpt lat="46.629398" lon="7.903053"><ele>656.75</ele></trkpt>
   <trkpt lat="46.629609" lon="7.902924"><ele>655.5</ele></trkpt>
   <trkpt lat="46.629782" lon="7.902742"><ele>655.25</ele></trkpt>
   <trkpt lat="46.630157" lon="7.902139"><ele>654.25</ele></trkpt>
   <trkpt lat="46.630401" lon="7.90176"><ele>653.5</ele></trkpt>
   <trkpt lat="46.630596" lon="7.901529"><ele>653.75</ele></trkpt>
   <trkpt lat="46.630764" lon="7.901364"><ele>654</ele></trkpt>
   <trkpt lat="46.630838" lon="7.901301"><ele>653.75</ele></trkpt>
   <trkpt lat="46.630996" lon="7.901192"><ele>653</ele></trkpt>
   <trkpt lat="46.631359" lon="7.900984"><ele>652</ele></trkpt>
   <trkpt lat="46.631626" lon="7.900812"><ele>651.75</ele></trkpt>
   <trkpt lat="46.632004" lon="7.900508"><ele>652</ele></trkpt>
   <trkpt lat="46.632172" lon="7.900367"><ele>652</ele></trkpt>
   <trkpt lat="46.632272" lon="7.900257"><ele>652</ele></trkpt>
   <trkpt lat="46.632439" lon="7.900095"><ele>652</ele></trkpt>
   <trkpt lat="46.632814" lon="7.899804"><ele>652</ele></trkpt>
   <trkpt lat="46.633404" lon="7.899362"><ele>651.25</ele></trkpt>
   <trkpt lat="46.63358" lon="7.899213"><ele>651.5</ele></trkpt>
   <trkpt lat="46.63375" lon="7.899019"><ele>650.5</ele></trkpt>
   <trkpt lat="46.633828" lon="7.898894"><ele>650.5</ele></trkpt>
   <trkpt lat="46.633885" lon="7.898783"><ele>650.75</ele></trkpt>
   <trkpt lat="46.633952" lon="7.898626"><ele>651</ele></trkpt>
   <trkpt lat="46.633997" lon="7.898487"><ele>651.5</ele></trkpt>
   <trkpt lat="46.634016" lon="7.898405"><ele>651.75</ele></trkpt>
   <trkpt lat="46.634051" lon="7.898201"><ele>651.75</ele></trkpt>
   <trkpt lat="46.634072" lon="7.898012"><ele>651</ele></trkpt>
   <trkpt lat="46.634138" lon="7.897355"><ele>649</ele></trkpt>
   <trkpt lat="46.634165" lon="7.897136"><ele>648.75</ele></trkpt>
   <trkpt lat="46.634201" lon="7.896932"><ele>648.5</ele></trkpt>
   <trkpt lat="46.63426" lon="7.896695"><ele>647.25</ele></trkpt>
   <trkpt lat="46.634298" lon="7.89657"><ele>647</ele></trkpt>
   <trkpt lat="46.634374" lon="7.896362"><ele>647</ele></trkpt>
   <trkpt lat="46.634423" lon="7.896245"><ele>647.25</ele></trkpt>
   <trkpt lat="46.634482" lon="7.896126"><ele>647.5</ele></trkpt>
   <trkpt lat="46.634541" lon="7.896019"><ele>646.5</ele></trkpt>
   <trkpt lat="46.634659" lon="7.89583"><ele>646</ele></trkpt>
   <trkpt lat="46.634792" lon="7.895659"><ele>645.5</ele></trkpt>
   <trkpt lat="46.634933" lon="7.89551"><ele>645</ele></trkpt>
   <trkpt lat="46.635063" lon="7.895398"><ele>645</ele></trkpt>
   <trkpt lat="46.635213" lon="7.89529"><ele>645.5</ele></trkpt>
   <trkpt lat="46.63672" lon="7.89447"><ele>644.5</ele></trkpt>
   <trkpt lat="46.637106" lon="7.894264"><ele>643.75</ele></trkpt>
   <trkpt lat="46.637424" lon="7.894064"><ele>644.25</ele></trkpt>
   <trkpt lat="46.63758" lon="7.893944"><ele>645</ele></trkpt>
   <trkpt lat="46.637689" lon="7.893846"><ele>645.5</ele></trkpt>
   <trkpt lat="46.637826" lon="7.893705"><ele>645.5</ele></trkpt>
   <trkpt lat="46.637933" lon="7.893566"><ele>645</ele></trkpt>
   <trkpt lat="46.638055" lon="7.893384"><ele>644.5</ele></trkpt>
   <trkpt lat="46.63815" lon="7.893219"><ele>644.5</ele></trkpt>
   <trkpt lat="46.638236" lon="7.893033"><ele>644.5</ele></trkpt>
   <trkpt lat="46.638314" lon="7.892843"><ele>644.75</ele></trkpt>
   <trkpt lat="46.638394" lon="7.892592"><ele>643.75</ele></trkpt>
   <trkpt lat="46.638447" lon="7.892386"><ele>643.25</ele></trkpt>
   <trkpt lat="46.638498" lon="7.892127"><ele>643.75</ele></trkpt>
   <trkpt lat="46.638522" lon="7.89193"><ele>644.25</ele></trkpt>
   <trkpt lat="46.638541" lon="7.891683"><ele>644.5</ele></trkpt>
   <trkpt lat="46.638544" lon="7.891465"><ele>645.5</ele></trkpt>
   <trkpt lat="46.638537" lon="7.891139"><ele>645</ele></trkpt>
   <trkpt lat="46.638532" lon="7.890946"><ele>645.5</ele></trkpt>
   <trkpt lat="46.638521" lon="7.89041"><ele>643.75</ele></trkpt>
   <trkpt lat="46.638531" lon="7.889909"><ele>642.25</ele></trkpt>
   <trkpt lat="46.638578" lon="7.889316"><ele>642.5</ele></trkpt>
   <trkpt lat="46.63861" lon="7.889071"><ele>642.5</ele></trkpt>
   <trkpt lat="46.638676" lon="7.888711"><ele>641</ele></trkpt>
   <trkpt lat="46.638722" lon="7.888516"><ele>640.25</ele></trkpt>
   <trkpt lat="46.638805" lon="7.888234"><ele>640.25</ele></trkpt>
   <trkpt lat="46.638884" lon="7.888027"><ele>640.75</ele></trkpt>
   <trkpt lat="46.638967" lon="7.887832"><ele>639.75</ele></trkpt>
   <trkpt lat="46.639148" lon="7.88749"><ele>639.75</ele></trkpt>
   <trkpt lat="46.639239" lon="7.887349"><ele>639</ele></trkpt>
   <trkpt lat="46.639422" lon="7.887103"><ele>638.75</ele></trkpt>
   <trkpt lat="46.639582" lon="7.886926"><ele>638.25</ele></trkpt>
   <trkpt lat="46.639741" lon="7.886779"><ele>638</ele></trkpt>
   <trkpt lat="46.640105" lon="7.88651"><ele>637.5</ele></trkpt>
   <trkpt lat="46.641014" lon="7.885923"><ele>636.75</ele></trkpt>
   <trkpt lat="46.641251" lon="7.885736"><ele>636.5</ele></trkpt>
   <trkpt lat="46.641378" lon="7.885621"><ele>636.75</ele></trkpt>
   <trkpt lat="46.641502" lon="7.885491"><ele>636.5</ele></trkpt>
   <trkpt lat="46.641712" lon="7.885247"><ele>636.5</ele></trkpt>
   <trkpt lat="46.641929" lon="7.884932"><ele>635.75</ele></trkpt>
   <trkpt lat="46.642029" lon="7.884768"><ele>636</ele></trkpt>
   <trkpt lat="46.642192" lon="7.884441"><ele>635.75</ele></trkpt>
   <trkpt lat="46.642313" lon="7.884153"><ele>636.75</ele></trkpt>
   <trkpt lat="46.642389" lon="7.883948"><ele>636</ele></trkpt>
   <trkpt lat="46.642702" lon="7.882876"><ele>635.5</ele></trkpt>
   <trkpt lat="46.643301" lon="7.880783"><ele>636</ele></trkpt>
   <trkpt lat="46.643397" lon="7.880467"><ele>636.75</ele></trkpt>
   <trkpt lat="46.643499" lon="7.880166"><ele>636.25</ele></trkpt>
   <trkpt lat="46.643692" lon="7.87968"><ele>636.75</ele></trkpt>
   <trkpt lat="46.64388" lon="7.879287"><ele>636</ele></trkpt>
   <trkpt lat="46.644082" lon="7.878923"><ele>635.75</ele></trkpt>
   <trkpt lat="46.644279" lon="7.878616"><ele>638</ele></trkpt>
   <trkpt lat="46.644448" lon="7.878377"><ele>636.25</ele></trkpt>
   <trkpt lat="46.644675" lon="7.878073"><ele>635</ele></trkpt>
   <trkpt lat="46.644784" lon="7.877912"><ele>635</ele></trkpt>
   <trkpt lat="46.644961" lon="7.877605"><ele>635.25</ele></trkpt>
   <trkpt lat="46.64531" lon="7.87686"><ele>636</ele></trkpt>
   <trkpt lat="46.645394" lon="7.876703"><ele>636</ele></trkpt>
   <trkpt lat="46.645472" lon="7.876571"><ele>635.25</ele></trkpt>
   <trkpt lat="46.64557" lon="7.876423"><ele>634.25</ele></trkpt>
   <trkpt lat="46.645744" lon="7.876202"><ele>632.25</ele></trkpt>
   <trkpt lat="46.645871" lon="7.876058"><ele>631.25</ele></trkpt>
   <trkpt lat="46.646116" lon="7.875797"><ele>632.25</ele></trkpt>
   <trkpt lat="46.646402" lon="7.875507"><ele>631</ele></trkpt>
   <trkpt lat="46.646735" lon="7.875146"><ele>628.5</ele></trkpt>
   <trkpt lat="46.647229" lon="7.874635"><ele>627.5</ele></trkpt>
   <trkpt lat="46.647426" lon="7.87445"><ele>627</ele></trkpt>
   <trkpt lat="46.647621" lon="7.874306"><ele>626.5</ele></trkpt>
   <trkpt lat="46.647805" lon="7.874201"><ele>626.25</ele></trkpt>
   <trkpt lat="46.647922" lon="7.874148"><ele>625.25</ele></trkpt>
   <trkpt lat="46.648437" lon="7.873974"><ele>622.5</ele></trkpt>
   <trkpt lat="46.648706" lon="7.873856"><ele>618.75</ele></trkpt>
   <trkpt lat="46.648926" lon="7.873716"><ele>612.75</ele></trkpt>
   <trkpt lat="46.649524" lon="7.873294"><ele>615.25</ele></trkpt>
   <trkpt lat="46.649696" lon="7.873213"><ele>621.5</ele></trkpt>
   <trkpt lat="46.649929" lon="7.873136"><ele>620.5</ele></trkpt>
   <trkpt lat="46.650173" lon="7.8731"><ele>619.5</ele></trkpt>
   <trkpt lat="46.650502" lon="7.873076"><ele>619</ele></trkpt>
   <trkpt lat="46.650886" lon="7.872999"><ele>616</ele></trkpt>
   <trkpt lat="46.650994" lon="7.872958"><ele>615.5</ele></trkpt>
   <trkpt lat="46.651111" lon="7.872898"><ele>615.5</ele></trkpt>
   <trkpt lat="46.651236" lon="7.872821"><ele>615.25</ele></trkpt>
   <trkpt lat="46.651372" lon="7.872715"><ele>614</ele></trkpt>
   <trkpt lat="46.65153" lon="7.872573"><ele>613</ele></trkpt>
   <trkpt lat="46.651657" lon="7.872419"><ele>613.75</ele></trkpt>
   <trkpt lat="46.651765" lon="7.872269"><ele>614</ele></trkpt>
   <trkpt lat="46.651871" lon="7.872098"><ele>613.5</ele></trkpt>
   <trkpt lat="46.651965" lon="7.871927"><ele>614</ele></trkpt>
   <trkpt lat="46.652141" lon="7.871569"><ele>612.75</ele></trkpt>
   <trkpt lat="46.652284" lon="7.871302"><ele>612.75</ele></trkpt>
   <trkpt lat="46.652441" lon="7.871046"><ele>612.25</ele></trkpt>
   <trkpt lat="46.652585" lon="7.870848"><ele>610.75</ele></trkpt>
   <trkpt lat="46.652758" lon="7.870656"><ele>607.75</ele></trkpt>
   <trkpt lat="46.652904" lon="7.870503"><ele>608.25</ele></trkpt>
   <trkpt lat="46.653126" lon="7.870326"><ele>608</ele></trkpt>
   <trkpt lat="46.653392" lon="7.87013"><ele>608.5</ele></trkpt>
   <trkpt lat="46.653827" lon="7.869939"><ele>607.5</ele></trkpt>
   <trkpt lat="46.654005" lon="7.869849"><ele>607.75</ele></trkpt>
   <trkpt lat="46.654232" lon="7.869689"><ele>606.25</ele></trkpt>
   <trkpt lat="46.654515" lon="7.869462"><ele>606</ele></trkpt>
   <trkpt lat="46.655023" lon="7.868907"><ele>604</ele></trkpt>
   <trkpt lat="46.655189" lon="7.868757"><ele>603.5</ele></trkpt>
   <trkpt lat="46.655337" lon="7.868651"><ele>602</ele></trkpt>
   <trkpt lat="46.655497" lon="7.868551"><ele>601.75</ele></trkpt>
   <trkpt lat="46.6557" lon="7.86848"><ele>601.75</ele></trkpt>
   <trkpt lat="46.65589" lon="7.868439"><ele>600.5</ele></trkpt>
   <trkpt lat="46.656101" lon="7.868432"><ele>598.75</ele></trkpt>
   <trkpt lat="46.656353" lon="7.868466"><ele>597</ele></trkpt>
   <trkpt lat="46.65648" lon="7.868502"><ele>596.5</ele></trkpt>
   <trkpt lat="46.656597" lon="7.868555"><ele>596</ele></trkpt>
   <trkpt lat="46.656717" lon="7.868615"><ele>595.5</ele></trkpt>
   <trkpt lat="46.65685" lon="7.868683"><ele>595.75</ele></trkpt>
   <trkpt lat="46.657101" lon="7.868843"><ele>596</ele></trkpt>
   <trkpt lat="46.657318" lon="7.868962"><ele>595.5</ele></trkpt>
   <trkpt lat="46.657505" lon="7.869028"><ele>594.75</ele></trkpt>
   <trkpt lat="46.657689" lon="7.869068"><ele>594.5</ele></trkpt>
   <trkpt lat="46.657866" lon="7.869078"><ele>594</ele></trkpt>
   <trkpt lat="46.658054" lon="7.869063"><ele>593.5</ele></trkpt>
   <trkpt lat="46.658702" lon="7.868936"><ele>593</ele></trkpt>
   <trkpt lat="46.658899" lon="7.86893"><ele>593.5</ele></trkpt>
   <trkpt lat="46.659482" lon="7.868993"><ele>592</ele></trkpt>
   <trkpt lat="46.660438" lon="7.869114"><ele>590.75</ele></trkpt>
   <trkpt lat="46.660728" lon="7.86915"><ele>590</ele></trkpt>
   <trkpt lat="46.660952" lon="7.869181"><ele>590</ele></trkpt>
   <trkpt lat="46.661085" lon="7.869215"><ele>589.25</ele></trkpt>
   <trkpt lat="46.661199" lon="7.869258"><ele>589</ele></trkpt>
   <trkpt lat="46.661396" lon="7.869373"><ele>589</ele></trkpt>
   <trkpt lat="46.661545" lon="7.869496"><ele>588.5</ele></trkpt>
   <trkpt lat="46.661868" lon="7.869793"><ele>587.5</ele></trkpt>
   <trkpt lat="46.661951" lon="7.869856"><ele>587.75</ele></trkpt>
   <trkpt lat="46.662119" lon="7.86996"><ele>588.25</ele></trkpt>
   <trkpt lat="46.662807" lon="7.870294"><ele>586.75</ele></trkpt>
   <trkpt lat="46.662974" lon="7.870346"><ele>586.5</ele></trkpt>
   <trkpt lat="46.663131" lon="7.870357"><ele>586.5</ele></trkpt>
   <trkpt lat="46.66326" lon="7.87034"><ele>586.25</ele></trkpt>
   <trkpt lat="46.663392" lon="7.8703"><ele>586</ele></trkpt>
   <trkpt lat="46.663513" lon="7.870237"><ele>586</ele></trkpt>
   <trkpt lat="46.663619" lon="7.870165"><ele>585.75</ele></trkpt>
   <trkpt lat="46.663773" lon="7.870029"><ele>585.25</ele></trkpt>
   <trkpt lat="46.664507" lon="7.869341"><ele>584.75</ele></trkpt>
   <trkpt lat="46.664682" lon="7.869216"><ele>584.75</ele></trkpt>
   <trkpt lat="46.664722" lon="7.869196"><ele>584.75</ele></trkpt>
   <trkpt lat="46.664848" lon="7.869149"><ele>584.5</ele></trkpt>
   <trkpt lat="46.664946" lon="7.869132"><ele>584.25</ele></trkpt>
   <trkpt lat="46.665096" lon="7.86913"><ele>584</ele></trkpt>
   <trkpt lat="46.665171" lon="7.86914"><ele>584</ele></trkpt>
   <trkpt lat="46.665303" lon="7.869173"><ele>584</ele></trkpt>
   <trkpt lat="46.665402" lon="7.869217"><ele>584</ele></trkpt>
   <trkpt lat="46.665511" lon="7.869279"><ele>584</ele></trkpt>
   <trkpt lat="46.665717" lon="7.869415"><ele>584</ele></trkpt>
   <trkpt lat="46.666894" lon="7.870192"><ele>583</ele></trkpt>
   <trkpt lat="46.667024" lon="7.870281"><ele>583</ele></trkpt>
   <trkpt lat="46.66744" lon="7.870548"><ele>582.75</ele></trkpt>
   <trkpt lat="46.667631" lon="7.870651"><ele>582.25</ele></trkpt>
   <trkpt lat="46.667648" lon="7.870659"><ele>582.25</ele></trkpt>
   <trkpt lat="46.667784" lon="7.870716"><ele>582</ele></trkpt>
   <trkpt lat="46.667974" lon="7.870766"><ele>582</ele></trkpt>
   <trkpt lat="46.668111" lon="7.870784"><ele>582</ele></trkpt>
   <trkpt lat="46.668243" lon="7.870788"><ele>582</ele></trkpt>
   <trkpt lat="46.668366" lon="7.870777"><ele>581.75</ele></trkpt>
   <trkpt lat="46.668513" lon="7.87075"><ele>581.25</ele></trkpt>
   <trkpt lat="46.668695" lon="7.870694"><ele>581</ele></trkpt>
   <trkpt lat="46.668835" lon="7.870636"><ele>581</ele></trkpt>
   <trkpt lat="46.669101" lon="7.8705"><ele>581</ele></trkpt>
   <trkpt lat="46.669384" lon="7.870343"><ele>580.75</ele></trkpt>
   <trkpt lat="46.669739" lon="7.870184"><ele>580</ele></trkpt>
   <trkpt lat="46.669961" lon="7.870071"><ele>580</ele></trkpt>
   <trkpt lat="46.670398" lon="7.869832"><ele>580</ele></trkpt>
   <trkpt lat="46.670581" lon="7.869743"><ele>579.75</ele></trkpt>
   <trkpt lat="46.670771" lon="7.869666"><ele>579</ele></trkpt>
   <trkpt lat="46.670859" lon="7.86964"><ele>579</ele></trkpt>
   <trkpt lat="46.67101" lon="7.86961"><ele>579</ele></trkpt>
   <trkpt lat="46.671143" lon="7.869597"><ele>578.75</ele></trkpt>
   <trkpt lat="46.671347" lon="7.869602"><ele>578</ele></trkpt>
   <trkpt lat="46.671514" lon="7.869629"><ele>578</ele></trkpt>
   <trkpt lat="46.671663" lon="7.869671"><ele>578</ele></trkpt>
   <trkpt lat="46.671763" lon="7.869709"><ele>578</ele></trkpt>
   <trkpt lat="46.671957" lon="7.869809"><ele>577.75</ele></trkpt>
   <trkpt lat="46.672063" lon="7.869878"><ele>577.75</ele></trkpt>
   <trkpt lat="46.672166" lon="7.869957"><ele>577.25</ele></trkpt>
   <trkpt lat="46.672304" lon="7.870083"><ele>577</ele></trkpt>
   <trkpt lat="46.672504" lon="7.870306"><ele>576.75</ele></trkpt>
   <trkpt lat="46.672793" lon="7.870753"><ele>576.75</ele></trkpt>
   <trkpt lat="46.673273" lon="7.871522"><ele>576.5</ele></trkpt>
   <trkpt lat="46.673965" lon="7.872628"><ele>575.25</ele></trkpt>
   <trkpt lat="46.674928" lon="7.874169"><ele>575</ele></trkpt>
   <trkpt lat="46.675234" lon="7.874645"><ele>575</ele></trkpt>
   <trkpt lat="46.675409" lon="7.87488"><ele>574.75</ele></trkpt>
   <trkpt lat="46.675571" lon="7.875076"><ele>574.75</ele></trkpt>
   <trkpt lat="46.675672" lon="7.875189"><ele>574.5</ele></trkpt>
   <trkpt lat="46.675845" lon="7.875365"><ele>573.75</ele></trkpt>
   <trkpt lat="46.675975" lon="7.875481"><ele>574</ele></trkpt>
   <trkpt lat="46.676193" lon="7.875652"><ele>574.25</ele></trkpt>
   <trkpt lat="46.6764" lon="7.875785"><ele>574</ele></trkpt>
   <trkpt lat="46.67663" lon="7.875898"><ele>574</ele></trkpt>
   <trkpt lat="46.67675" lon="7.875944"><ele>574</ele></trkpt>
   <trkpt lat="46.677024" lon="7.87602"><ele>574.5</ele></trkpt>
   <trkpt lat="46.678887" lon="7.876393"><ele>573</ele></trkpt>
   <trkpt lat="46.679175" lon="7.876431"><ele>572.75</ele></trkpt>
   <trkpt lat="46.679261" lon="7.876435"><ele>572.5</ele></trkpt>
   <trkpt lat="46.67948" lon="7.876422"><ele>572</ele></trkpt>
   <trkpt lat="46.679567" lon="7.876412"><ele>572</ele></trkpt>
   <trkpt lat="46.679793" lon="7.876362"><ele>572</ele></trkpt>
   <trkpt lat="46.680047" lon="7.876268"><ele>571.25</ele></trkpt>
   <trkpt lat="46.680233" lon="7.876176"><ele>571.75</ele></trkpt>
   <trkpt lat="46.680358" lon="7.876103"><ele>572.25</ele></trkpt>
   <trkpt lat="46.680696" lon="7.875859"><ele>573.75</ele></trkpt>
   <trkpt lat="46.681806" lon="7.875013"><ele>571</ele></trkpt>
   <trkpt lat="46.681981" lon="7.8749"><ele>570.75</ele></trkpt>
   <trkpt lat="46.682164" lon="7.874798"><ele>570.25</ele></trkpt>
   <trkpt lat="46.682344" lon="7.874714"><ele>570</ele></trkpt>
   <trkpt lat="46.68252" lon="7.874645"><ele>570</ele></trkpt>
   <trkpt lat="46.682841" lon="7.874557"><ele>570.25</ele></trkpt>
   <trkpt lat="46.683291" lon="7.874478"><ele>570</ele></trkpt>
   <trkpt lat="46.685147" lon="7.874172"><ele>568.25</ele></trkpt>
   <trkpt lat="46.685924" lon="7.874052"><ele>568</ele></trkpt>
   <trkpt lat="46.687408" lon="7.87387"><ele>567.75</ele></trkpt>
   <trkpt lat="46.687932" lon="7.873789"><ele>565.75</ele></trkpt>
   <trkpt lat="46.6881" lon="7.873762"><ele>565</ele></trkpt>
   <trkpt lat="46.68828" lon="7.873732"><ele>566.25</ele></trkpt>
   <trkpt lat="46.689442" lon="7.873539"><ele>566.5</ele></trkpt>
   <trkpt lat="46.689529" lon="7.873522"><ele>567</ele></trkpt>
   <trkpt lat="46.689739" lon="7.873459"><ele>567.25</ele></trkpt>
   <trkpt lat="46.689917" lon="7.873371"><ele>567</ele></trkpt>
   <trkpt lat="46.690038" lon="7.873291"><ele>566.75</ele></trkpt>
   <trkpt lat="46.69013" lon="7.873216"><ele>566.75</ele></trkpt>
   <trkpt lat="46.690287" lon="7.873061"><ele>567</ele></trkpt>
   <trkpt lat="46.690373" lon="7.872962"><ele>567</ele></trkpt>
   <trkpt lat="46.690458" lon="7.872835"><ele>567</ele></trkpt>
   <trkpt lat="46.690529" lon="7.8727"><ele>567</ele></trkpt>
   <trkpt lat="46.690683" lon="7.872312"><ele>566.5</ele></trkpt>
   <trkpt lat="46.690716" lon="7.872203"><ele>566.25</ele></trkpt>
   <trkpt lat="46.690759" lon="7.872002"><ele>566.75</ele></trkpt>
   <trkpt lat="46.690773" lon="7.871875"><ele>567</ele></trkpt>
   <trkpt lat="46.690779" lon="7.871753"><ele>567</ele></trkpt>
   <trkpt lat="46.690777" lon="7.871609"><ele>567</ele></trkpt>
   <trkpt lat="46.69077" lon="7.871522"><ele>567</ele></trkpt>
   <trkpt lat="46.690687" lon="7.870817"><ele>567</ele></trkpt>
   <trkpt lat="46.690623" lon="7.870264"><ele>567</ele></trkpt>
  </trkseg>
 </trk>
</gpx>